; RepRap G-Code generated for Duet 3
; NOTE: Standard XYZ mapping (Z is height)
; EXTRUSION: Externally managed (No E parameters)
; Constant Volumetric Flowrate: 2.4 mm^3/s
; Offset Applied: X+88.563 Y+46.587

; --- STARTING SEQUENCE ---
M201 X500 Y500 Z100 ; Set max acceleration
M203 X30000 Y30000 Z300 ; Set max feedrate
M204 P500 T500 ; Set print and travel accelerations
M566 X480.00 Y480.00 Z24.00 ; Set jerk
G90 ; Absolute positioning
G21 ; Set units to millimeters
G92 Z0 ; Reset Z position
G1 Z30 F600 ; Move Z up to clear petri dish
G28 X Y ; Home X and Y
G28 Z ; Home Z
M400 ; Wait for current moves to finish
G92 Z0 ; Reset Z position
G1 Z30 F600 ; Move Z up to safe height
G1 X88.563 Y46.587 F3000 ; Move to starting position (center of dish)
; --- END STARTING SEQUENCE ---

G0 X103.0630 Y61.1070 Z0.0400 F6000.0 ; Initial approach
M118 P0 S"0" ; Sync timer
G1 X74.0630 Y61.1070 Z0.0400 F600.0 ; Width: 1.200mm
G1 X74.0430 Y61.0870 Z0.0400 F600.0 ; Width: 1.200mm
M118 P0 S"1" ; Sync timer
G1 X74.0430 Y32.0870 Z0.0400 F600.0 ; Width: 1.200mm
G1 X74.0630 Y32.0670 Z0.0400 F600.0 ; Width: 1.200mm
M118 P0 S"2" ; Sync timer
G1 X103.0630 Y32.0670 Z0.0400 F600.0 ; Width: 1.200mm
G1 X103.0830 Y32.0870 Z0.0400 F600.0 ; Width: 1.200mm
M118 P0 S"3" ; Sync timer
G1 X103.0830 Y61.0870 Z0.0400 F624.5 ; Width: 1.153mm
G1 X103.0630 Y61.1070 Z0.0400 F600.0 ; Width: 1.200mm
G0 Z1.0400 F6000.0 ; Z-hop up
G0 X102.0630 Y60.1070 F6000.0 ; Travel to new path
G0 Z0.0400 F6000.0 ; Z-hop down
M118 P0 S"4" ; Sync timer
G1 X75.0630 Y60.1070 Z0.0400 F600.0 ; Width: 1.200mm
G1 X75.0430 Y60.0870 Z0.0400 F600.0 ; Width: 1.200mm
G1 X75.0430 Y56.1670 Z0.0400 F693.3 ; Width: 1.038mm
G1 X75.0630 Y56.1510 Z0.0400 F710.4 ; Width: 1.014mm
G1 X75.1850 Y56.3070 Z0.0400 F722.3 ; Width: 0.997mm
G1 X75.3681 Y56.4870 Z0.0400 F719.8 ; Width: 1.000mm
G1 X75.4830 Y56.5760 Z0.0400 F720.9 ; Width: 0.999mm
G1 X75.6230 Y56.6629 Z0.0400 F721.6 ; Width: 0.998mm
G1 X75.7630 Y56.7303 Z0.0400 F719.7 ; Width: 1.000mm
G1 X75.9230 Y56.7870 Z0.0400 F721.5 ; Width: 0.998mm
G1 X76.0830 Y56.8243 Z0.0400 F721.6 ; Width: 0.998mm
G1 X76.2630 Y56.8449 Z0.0400 F721.7 ; Width: 0.998mm
G1 X78.3830 Y56.8470 Z0.0400 F600.0 ; Width: 1.200mm
G1 X78.6030 Y56.8308 Z0.0400 F722.9 ; Width: 0.996mm
G1 X78.7430 Y56.8032 Z0.0400 F719.1 ; Width: 1.001mm
G1 X78.8630 Y56.7681 Z0.0400 F720.9 ; Width: 0.999mm
G1 X78.9830 Y56.7218 Z0.0400 F719.1 ; Width: 1.001mm
G1 X79.0954 Y56.6670 Z0.0400 F1800.0 ; Width: 0.400mm
G1 X79.2030 Y56.6030 Z0.0400 F1800.0 ; Width: 0.400mm
G1 X79.3090 Y56.5270 Z0.0400 F1800.0 ; Width: 0.400mm
G1 X79.4030 Y56.4468 Z0.0400 F1800.0 ; Width: 0.400mm
G1 X79.5030 Y56.3468 Z0.0400 F1800.0 ; Width: 0.400mm
G1 X79.5230 Y56.3468 Z0.0400 F1800.0 ; Width: 0.400mm
G1 X79.6452 Y56.4670 Z0.0400 F1800.0 ; Width: 0.400mm
G1 X79.7703 Y56.5670 Z0.0400 F1800.0 ; Width: 0.400mm
G1 X79.8830 Y56.6402 Z0.0400 F1800.0 ; Width: 0.400mm
G1 X80.0030 Y56.7036 Z0.0400 F749.0 ; Width: 0.961mm
G1 X80.1230 Y56.7540 Z0.0400 F742.6 ; Width: 0.970mm
G1 X80.2630 Y56.7981 Z0.0400 F720.2 ; Width: 1.000mm
G1 X80.4030 Y56.8277 Z0.0400 F719.1 ; Width: 1.001mm
G1 X80.5430 Y56.8437 Z0.0400 F721.2 ; Width: 0.998mm
G1 X82.8030 Y56.8422 Z0.0400 F600.0 ; Width: 1.200mm
G1 X82.9830 Y56.8167 Z0.0400 F721.0 ; Width: 0.999mm
G1 X83.1630 Y56.7681 Z0.0400 F721.0 ; Width: 0.999mm
G1 X83.3430 Y56.6940 Z0.0400 F722.2 ; Width: 0.997mm
G1 X83.5030 Y56.6030 Z0.0400 F719.0 ; Width: 1.001mm
G1 X83.5230 Y56.6030 Z0.0400 F716.0 ; Width: 1.006mm
G1 X83.6830 Y56.6940 Z0.0400 F721.1 ; Width: 0.998mm
G1 X83.8630 Y56.7681 Z0.0400 F721.1 ; Width: 0.998mm
G1 X84.0430 Y56.8167 Z0.0400 F721.0 ; Width: 0.999mm
G1 X84.2430 Y56.8437 Z0.0400 F721.2 ; Width: 0.998mm
G1 X87.1830 Y56.8449 Z0.0400 F600.0 ; Width: 1.200mm
G1 X87.3230 Y56.8308 Z0.0400 F721.1 ; Width: 0.999mm
G1 X87.4430 Y56.8080 Z0.0400 F719.1 ; Width: 1.001mm
G1 X87.5630 Y56.7747 Z0.0400 F720.9 ; Width: 0.999mm
G1 X87.6830 Y56.7303 Z0.0400 F719.6 ; Width: 1.000mm
G1 X87.8030 Y56.6736 Z0.0400 F720.1 ; Width: 1.000mm
G1 X87.9168 Y56.6070 Z0.0400 F720.8 ; Width: 0.999mm
G1 X88.0230 Y56.5317 Z0.0400 F718.8 ; Width: 1.002mm
G1 X88.1228 Y56.4470 Z0.0400 F1800.0 ; Width: 0.400mm
G1 X88.2228 Y56.3470 Z0.0400 F1800.0 ; Width: 0.400mm
G1 X88.3030 Y56.2530 Z0.0400 F1800.0 ; Width: 0.400mm
G1 X88.3790 Y56.1470 Z0.0400 F1800.0 ; Width: 0.400mm
G1 X88.4389 Y56.0470 Z0.0400 F1800.0 ; Width: 0.400mm
G1 X88.5424 Y55.8270 Z0.0400 F720.9 ; Width: 0.999mm
G1 X88.6430 Y55.5110 Z0.0400 F717.3 ; Width: 1.004mm
G1 X88.7160 Y55.7470 Z0.0400 F719.0 ; Width: 1.001mm
G1 X88.8364 Y56.0270 Z0.0400 F723.0 ; Width: 0.996mm
G1 X88.9630 Y56.2270 Z0.0400 F745.7 ; Width: 0.966mm
G1 X89.1230 Y56.4083 Z0.0400 F774.8 ; Width: 0.929mm
G1 X89.3030 Y56.5617 Z0.0400 F722.3 ; Width: 0.997mm
G1 X89.5030 Y56.6840 Z0.0400 F723.3 ; Width: 0.995mm
G1 X89.7230 Y56.7747 Z0.0400 F722.3 ; Width: 0.997mm
G1 X89.8430 Y56.8080 Z0.0400 F720.1 ; Width: 1.000mm
M118 P0 S"5" ; Sync timer
G1 X89.9630 Y56.8308 Z0.0400 F719.1 ; Width: 1.001mm
G1 X90.1830 Y56.8470 Z0.0400 F722.9 ; Width: 0.996mm
G1 X92.9430 Y56.8469 Z0.0400 F600.0 ; Width: 1.200mm
G1 X93.1030 Y56.8362 Z0.0400 F720.3 ; Width: 1.000mm
G1 X93.2630 Y56.8080 Z0.0400 F721.4 ; Width: 0.998mm
G1 X93.4430 Y56.7540 Z0.0400 F720.5 ; Width: 0.999mm
G1 X93.6230 Y56.6736 Z0.0400 F721.6 ; Width: 0.998mm
G1 X93.7830 Y56.5760 Z0.0400 F721.9 ; Width: 0.997mm
G1 X93.9230 Y56.4650 Z0.0400 F719.4 ; Width: 1.001mm
G1 X94.0810 Y56.3070 Z0.0400 F721.1 ; Width: 0.999mm
G1 X94.1920 Y56.1670 Z0.0400 F721.7 ; Width: 0.998mm
G1 X94.2896 Y56.0070 Z0.0400 F719.8 ; Width: 1.000mm
G1 X94.3830 Y55.8084 Z0.0400 F720.2 ; Width: 1.000mm
G1 X94.6030 Y56.0279 Z0.0400 F709.3 ; Width: 1.015mm
G1 X94.7170 Y56.1270 Z0.0400 F721.3 ; Width: 0.998mm
G1 X95.0190 Y56.3470 Z0.0400 F711.6 ; Width: 1.012mm
G1 X95.2630 Y56.5002 Z0.0400 F717.0 ; Width: 1.004mm
G1 X95.7230 Y56.7303 Z0.0400 F714.2 ; Width: 1.008mm
G1 X95.9830 Y56.8281 Z0.0400 F718.1 ; Width: 1.003mm
G1 X96.2430 Y56.9070 Z0.0400 F715.7 ; Width: 1.006mm
G1 X96.5630 Y56.9843 Z0.0400 F720.5 ; Width: 0.999mm
G1 X96.7230 Y57.0037 Z0.0400 F721.1 ; Width: 0.998mm
G1 X96.8830 Y57.0336 Z0.0400 F720.2 ; Width: 1.000mm
G1 X97.0230 Y57.0458 Z0.0400 F720.9 ; Width: 0.999mm
G1 X97.9430 Y57.0458 Z0.0400 F669.2 ; Width: 1.076mm
G1 X98.0630 Y57.0362 Z0.0400 F719.1 ; Width: 1.001mm
G1 X98.2430 Y57.0049 Z0.0400 F721.3 ; Width: 0.998mm
G1 X98.3830 Y56.9908 Z0.0400 F720.2 ; Width: 1.000mm
G1 X98.7430 Y56.9070 Z0.0400 F719.4 ; Width: 1.001mm
G1 X99.1830 Y56.7540 Z0.0400 F722.1 ; Width: 0.997mm
G1 X99.4230 Y56.6540 Z0.0400 F721.3 ; Width: 0.998mm
G1 X99.6630 Y56.5336 Z0.0400 F712.3 ; Width: 1.011mm
G1 X99.7830 Y56.4630 Z0.0400 F720.7 ; Width: 0.999mm
G1 X99.9168 Y56.3670 Z0.0400 F720.0 ; Width: 1.000mm
G1 X100.0630 Y56.2760 Z0.0400 F715.0 ; Width: 1.007mm
G1 X100.2030 Y56.1717 Z0.0400 F719.0 ; Width: 1.001mm
G1 X100.5230 Y55.8879 Z0.0400 F719.8 ; Width: 1.000mm
G1 X100.6210 Y55.7870 Z0.0400 F720.8 ; Width: 0.999mm
G1 X100.7755 Y55.6070 Z0.0400 F714.7 ; Width: 1.007mm
G1 X101.0430 Y55.2670 Z0.0400 F723.1 ; Width: 0.996mm
G1 X101.2518 Y54.9470 Z0.0400 F715.9 ; Width: 1.006mm
G1 X101.3200 Y54.8270 Z0.0400 F721.1 ; Width: 0.999mm
G1 X101.5578 Y54.3470 Z0.0400 F704.0 ; Width: 1.023mm
G1 X101.7107 Y53.9470 Z0.0400 F712.9 ; Width: 1.010mm
G1 X101.8592 Y53.4270 Z0.0400 F722.6 ; Width: 0.996mm
G1 X101.9040 Y53.1870 Z0.0400 F719.7 ; Width: 1.000mm
G1 X101.9566 Y52.9670 Z0.0400 F719.7 ; Width: 1.000mm
G1 X102.0122 Y52.6270 Z0.0400 F716.6 ; Width: 1.005mm
G1 X102.0237 Y52.4270 Z0.0400 F719.0 ; Width: 1.001mm
G1 X102.0544 Y52.2270 Z0.0400 F718.5 ; Width: 1.002mm
G1 X102.0630 Y52.0670 Z0.0400 F721.4 ; Width: 0.998mm
G1 X102.0830 Y52.0870 Z0.0400 F711.4 ; Width: 1.012mm
M118 P0 S"6" ; Sync timer
G1 X102.0830 Y60.0870 Z0.0400 F600.9 ; Width: 1.198mm
G1 X102.0630 Y60.1070 Z0.0400 F3600.0 ; Width: 0.200mm
G0 Z1.0400 F6000.0 ; Z-hop up
G0 X101.0630 Y59.1070 F6000.0 ; Travel to new path
G0 Z0.0400 F6000.0 ; Z-hop down
M118 P0 S"7" ; Sync timer
G1 X76.0630 Y59.1070 Z0.0400 F600.0 ; Width: 1.200mm
G1 X76.0430 Y59.0870 Z0.0400 F600.0 ; Width: 1.200mm
G1 X76.0430 Y57.8470 Z0.0400 F600.0 ; Width: 1.200mm
G1 X76.0630 Y57.8313 Z0.0400 F709.2 ; Width: 1.015mm
G1 X76.3430 Y57.8470 Z0.0400 F722.8 ; Width: 0.996mm
G1 X78.3830 Y57.8470 Z0.0400 F600.0 ; Width: 1.200mm
G1 X78.5830 Y57.8390 Z0.0400 F719.3 ; Width: 1.001mm
G1 X78.8230 Y57.8080 Z0.0400 F721.6 ; Width: 0.998mm
G1 X79.0630 Y57.7527 Z0.0400 F721.8 ; Width: 0.997mm
G1 X79.2830 Y57.6794 Z0.0400 F721.9 ; Width: 0.997mm
G1 X79.5030 Y57.5821 Z0.0400 F722.1 ; Width: 0.997mm
G1 X79.5230 Y57.5821 Z0.0400 F715.8 ; Width: 1.006mm
G1 X79.8030 Y57.7017 Z0.0400 F721.5 ; Width: 0.998mm
G1 X80.0430 Y57.7739 Z0.0400 F720.5 ; Width: 0.999mm
G1 X80.3030 Y57.8238 Z0.0400 F721.4 ; Width: 0.998mm
G1 X80.5630 Y57.8457 Z0.0400 F722.0 ; Width: 0.997mm
G1 X82.8030 Y57.8441 Z0.0400 F600.0 ; Width: 1.200mm
G1 X82.9830 Y57.8289 Z0.0400 F721.2 ; Width: 0.998mm
G1 X83.1630 Y57.8005 Z0.0400 F718.5 ; Width: 1.002mm
G1 X83.3430 Y57.7583 Z0.0400 F720.1 ; Width: 1.000mm
G1 X83.5030 Y57.7087 Z0.0400 F720.2 ; Width: 1.000mm
G1 X83.8830 Y57.8043 Z0.0400 F717.9 ; Width: 1.003mm
G1 X84.0630 Y57.8313 Z0.0400 F717.5 ; Width: 1.004mm
G1 X84.2430 Y57.8450 Z0.0400 F721.1 ; Width: 0.999mm
G1 X87.2030 Y57.8450 Z0.0400 F600.0 ; Width: 1.200mm
G1 X87.4030 Y57.8289 Z0.0400 F720.5 ; Width: 0.999mm
G1 X87.5830 Y57.8005 Z0.0400 F721.1 ; Width: 0.999mm
G1 X87.7830 Y57.7527 Z0.0400 F721.5 ; Width: 0.998mm
G1 X87.9630 Y57.6944 Z0.0400 F721.3 ; Width: 0.998mm
G1 X88.1430 Y57.6204 Z0.0400 F721.3 ; Width: 0.998mm
M118 P0 S"8" ; Sync timer
G1 X88.3230 Y57.5291 Z0.0400 F721.1 ; Width: 0.998mm
G1 X88.4830 Y57.4316 Z0.0400 F720.3 ; Width: 1.000mm
G1 X88.6430 Y57.3164 Z0.0400 F719.6 ; Width: 1.000mm
G1 X88.7830 Y57.4182 Z0.0400 F721.1 ; Width: 0.999mm
G1 X88.9230 Y57.5063 Z0.0400 F715.2 ; Width: 1.007mm
G1 X89.0630 Y57.5821 Z0.0400 F720.0 ; Width: 1.000mm
G1 X89.2230 Y57.6553 Z0.0400 F718.8 ; Width: 1.002mm
G1 X89.3830 Y57.7155 Z0.0400 F717.9 ; Width: 1.003mm
G1 X89.5430 Y57.7637 Z0.0400 F720.5 ; Width: 0.999mm
G1 X89.7030 Y57.8005 Z0.0400 F721.0 ; Width: 0.999mm
G1 X89.8830 Y57.8289 Z0.0400 F721.1 ; Width: 0.999mm
G1 X90.1630 Y57.8469 Z0.0400 F717.3 ; Width: 1.004mm
G1 X93.0030 Y57.8457 Z0.0400 F600.0 ; Width: 1.200mm
G1 X93.2230 Y57.8289 Z0.0400 F719.1 ; Width: 1.001mm
G1 X93.4230 Y57.7965 Z0.0400 F719.3 ; Width: 1.001mm
G1 X93.6230 Y57.7470 Z0.0400 F721.3 ; Width: 0.998mm
G1 X93.8230 Y57.6794 Z0.0400 F720.5 ; Width: 0.999mm
G1 X94.0030 Y57.6017 Z0.0400 F717.5 ; Width: 1.003mm
G1 X94.1830 Y57.5063 Z0.0400 F721.5 ; Width: 0.998mm
G1 X94.3430 Y57.4046 Z0.0400 F718.6 ; Width: 1.002mm
G1 X94.5430 Y57.2511 Z0.0400 F719.7 ; Width: 1.000mm
G1 X94.5630 Y57.2447 Z0.0400 F716.5 ; Width: 1.005mm
G1 X94.8630 Y57.4216 Z0.0400 F721.3 ; Width: 0.998mm
G1 X95.3430 Y57.6553 Z0.0400 F706.9 ; Width: 1.019mm
G1 X95.7230 Y57.7950 Z0.0400 F717.4 ; Width: 1.004mm
G1 X96.0030 Y57.8783 Z0.0400 F716.9 ; Width: 1.004mm
G1 X96.2630 Y57.9435 Z0.0400 F712.9 ; Width: 1.010mm
G1 X96.7230 Y58.0209 Z0.0400 F719.7 ; Width: 1.000mm
G1 X96.9430 Y58.0431 Z0.0400 F720.2 ; Width: 1.000mm
G1 X98.0030 Y58.0441 Z0.0400 F657.8 ; Width: 1.095mm
G1 X98.1830 Y58.0289 Z0.0400 F719.4 ; Width: 1.001mm
G1 X98.5630 Y57.9748 Z0.0400 F716.1 ; Width: 1.005mm
G1 X98.9230 Y57.8939 Z0.0400 F712.9 ; Width: 1.010mm
G1 X99.3230 Y57.7687 Z0.0400 F720.4 ; Width: 0.999mm
G1 X99.7430 Y57.6069 Z0.0400 F722.0 ; Width: 0.997mm
G1 X100.1230 Y57.4216 Z0.0400 F719.9 ; Width: 1.000mm
G1 X100.3230 Y57.3047 Z0.0400 F719.4 ; Width: 1.001mm
G1 X100.6230 Y57.1046 Z0.0400 F716.1 ; Width: 1.005mm
G1 X100.7830 Y56.9870 Z0.0400 F719.2 ; Width: 1.001mm
G1 X100.9230 Y56.8739 Z0.0400 F720.7 ; Width: 0.999mm
G1 X101.0630 Y56.7444 Z0.0400 F709.3 ; Width: 1.015mm
G1 X101.0830 Y56.7470 Z0.0400 F706.6 ; Width: 1.019mm
G1 X101.0830 Y59.0870 Z0.0400 F605.0 ; Width: 1.190mm
G1 X101.0630 Y59.1070 Z0.0400 F3600.0 ; Width: 0.200mm
G0 Z1.0400 F6000.0 ; Z-hop up
G0 X97.8830 Y56.0470 F6000.0 ; Travel to new path
G0 Z0.0400 F6000.0 ; Z-hop down
G1 X97.9830 Y56.0369 Z0.0400 F3600.0 ; Width: 0.200mm
G1 X98.0830 Y56.0070 Z0.0400 F3600.0 ; Width: 0.200mm
G1 X98.2430 Y56.0006 Z0.0400 F2541.3 ; Width: 0.283mm
G1 X98.4630 Y55.9470 Z0.0400 F1513.7 ; Width: 0.476mm
G1 X98.6830 Y55.8735 Z0.0400 F1023.6 ; Width: 0.703mm
G1 X98.9588 Y55.7670 Z0.0400 F746.2 ; Width: 0.965mm
G1 X99.2342 Y55.6270 Z0.0400 F712.6 ; Width: 1.010mm
G1 X99.5830 Y55.3870 Z0.0400 F720.7 ; Width: 0.999mm
G1 X99.7430 Y55.2350 Z0.0400 F708.6 ; Width: 1.016mm
G1 X99.8030 Y55.1912 Z0.0400 F713.6 ; Width: 1.009mm
G1 X99.8630 Y55.1339 Z0.0400 F719.2 ; Width: 1.001mm
G1 X100.1072 Y54.8470 Z0.0400 F718.2 ; Width: 1.002mm
G1 X100.1910 Y54.7270 Z0.0400 F709.6 ; Width: 1.015mm
G1 X100.2430 Y54.6670 Z0.0400 F717.4 ; Width: 1.004mm
G1 X100.3120 Y54.5470 Z0.0400 F712.3 ; Width: 1.011mm
G1 X100.4216 Y54.3870 Z0.0400 F715.1 ; Width: 1.007mm
G1 X100.6413 Y53.9470 Z0.0400 F700.2 ; Width: 1.028mm
G1 X100.7567 Y53.6470 Z0.0400 F706.0 ; Width: 1.020mm
G1 X100.7929 Y53.5070 Z0.0400 F715.4 ; Width: 1.006mm
G1 X100.8230 Y53.4270 Z0.0400 F704.2 ; Width: 1.022mm
G1 X100.8430 Y53.3270 Z0.0400 F700.8 ; Width: 1.027mm
G1 X100.8884 Y53.1870 Z0.0400 F714.4 ; Width: 1.008mm
G1 X100.9230 Y52.9870 Z0.0400 F717.7 ; Width: 1.003mm
G1 X100.9729 Y52.7870 Z0.0400 F718.6 ; Width: 1.002mm
G1 X100.9830 Y52.6670 Z0.0400 F714.5 ; Width: 1.008mm
G1 X101.0166 Y52.5270 Z0.0400 F710.9 ; Width: 1.013mm
G1 X101.0230 Y52.3270 Z0.0400 F717.2 ; Width: 1.004mm
G1 X101.0614 Y52.1070 Z0.0400 F717.4 ; Width: 1.004mm
G1 X101.0630 Y51.8870 Z0.0400 F717.7 ; Width: 1.003mm
G1 X101.0794 Y51.8070 Z0.0400 F708.7 ; Width: 1.016mm
G1 X101.0830 Y51.6470 Z0.0400 F693.0 ; Width: 1.039mm
G1 X101.1026 Y51.5270 Z0.0400 F665.2 ; Width: 1.082mm
M118 P0 S"9" ; Sync timer
G1 X101.1026 Y50.2270 Z0.0400 F664.6 ; Width: 1.083mm
G1 X101.0929 Y50.1470 Z0.0400 F715.6 ; Width: 1.006mm
G1 X101.0695 Y50.0670 Z0.0400 F718.0 ; Width: 1.003mm
G1 X101.0216 Y49.9670 Z0.0400 F716.7 ; Width: 1.005mm
G1 X100.9630 Y49.8821 Z0.0400 F717.9 ; Width: 1.003mm
G1 X100.8679 Y49.7870 Z0.0400 F717.9 ; Width: 1.003mm
G1 X100.8030 Y49.7399 Z0.0400 F717.6 ; Width: 1.003mm
G1 X100.7230 Y49.7005 Z0.0400 F718.0 ; Width: 1.003mm
G1 X100.6230 Y49.6734 Z0.0400 F718.1 ; Width: 1.003mm
G1 X100.5430 Y49.6670 Z0.0400 F718.1 ; Width: 1.003mm
G1 X99.2430 Y49.6670 Z0.0400 F651.3 ; Width: 1.105mm
G1 X99.1230 Y49.6474 Z0.0400 F715.4 ; Width: 1.006mm
G1 X98.5630 Y49.6474 Z0.0400 F693.2 ; Width: 1.039mm
G1 X98.4430 Y49.6670 Z0.0400 F717.3 ; Width: 1.004mm
G1 X98.3430 Y49.7005 Z0.0400 F718.1 ; Width: 1.003mm
G1 X98.2630 Y49.7399 Z0.0400 F715.7 ; Width: 1.006mm
G1 X98.1761 Y49.8070 Z0.0400 F694.8 ; Width: 1.036mm
G1 X98.1188 Y49.8670 Z0.0400 F662.6 ; Width: 1.087mm
G1 X98.0759 Y49.9270 Z0.0400 F631.1 ; Width: 1.141mm
G1 X98.0165 Y50.0470 Z0.0400 F600.0 ; Width: 1.200mm
G1 X97.9694 Y50.2070 Z0.0400 F600.0 ; Width: 1.200mm
G1 X97.9630 Y50.5270 Z0.0400 F636.3 ; Width: 1.132mm
G1 X97.9830 Y50.6670 Z0.0400 F690.0 ; Width: 1.044mm
G1 X97.9830 Y51.0870 Z0.0400 F723.6 ; Width: 0.995mm
G1 X97.9634 Y51.2070 Z0.0400 F737.9 ; Width: 0.976mm
G1 X97.9630 Y51.7070 Z0.0400 F746.2 ; Width: 0.965mm
G1 X97.9030 Y52.1270 Z0.0400 F804.5 ; Width: 0.895mm
G1 X97.8630 Y52.3270 Z0.0400 F921.1 ; Width: 0.782mm
G1 X97.8030 Y52.5070 Z0.0400 F981.8 ; Width: 0.733mm
G1 X97.7336 Y52.6270 Z0.0400 F974.2 ; Width: 0.739mm
G1 X97.6961 Y52.6670 Z0.0400 F811.2 ; Width: 0.888mm
G1 X97.6630 Y52.6870 Z0.0400 F1800.0 ; Width: 0.400mm
G1 X97.5430 Y52.7270 Z0.0400 F1800.0 ; Width: 0.400mm
G1 X97.4230 Y52.7270 Z0.0400 F1800.0 ; Width: 0.400mm
G1 X97.3030 Y52.6870 Z0.0400 F1800.0 ; Width: 0.400mm
G1 X97.2630 Y52.6558 Z0.0400 F1800.0 ; Width: 0.400mm
G1 X97.1830 Y52.5470 Z0.0400 F1800.0 ; Width: 0.400mm
G1 X97.1329 Y52.4470 Z0.0400 F1800.0 ; Width: 0.400mm
G1 X97.1030 Y52.3470 Z0.0400 F1037.7 ; Width: 0.694mm
G1 X97.0929 Y52.2670 Z0.0400 F1011.7 ; Width: 0.712mm
G1 X97.0430 Y52.0670 Z0.0400 F896.8 ; Width: 0.803mm
G1 X97.0394 Y51.9670 Z0.0400 F828.7 ; Width: 0.869mm
G1 X97.0230 Y51.8870 Z0.0400 F805.0 ; Width: 0.894mm
G1 X97.0214 Y51.6670 Z0.0400 F763.2 ; Width: 0.943mm
G1 X97.0030 Y51.5670 Z0.0400 F753.9 ; Width: 0.955mm
G1 X97.0026 Y51.0470 Z0.0400 F745.5 ; Width: 0.966mm
G1 X96.9830 Y50.9270 Z0.0400 F723.5 ; Width: 0.995mm
G1 X96.9830 Y44.0870 Z0.0400 F677.4 ; Width: 1.063mm
G1 X97.0014 Y43.9870 Z0.0400 F739.4 ; Width: 0.974mm
G1 X97.0030 Y43.7470 Z0.0400 F745.0 ; Width: 0.966mm
G1 X97.0214 Y43.6470 Z0.0400 F767.0 ; Width: 0.939mm
G1 X97.0230 Y43.4670 Z0.0400 F781.1 ; Width: 0.922mm
G1 X97.0394 Y43.3870 Z0.0400 F812.3 ; Width: 0.886mm
G1 X97.0430 Y43.3070 Z0.0400 F828.4 ; Width: 0.869mm
G1 X97.1030 Y43.0470 Z0.0400 F1800.0 ; Width: 0.400mm
G1 X97.1430 Y42.9070 Z0.0400 F1800.0 ; Width: 0.400mm
G1 X97.1906 Y42.8070 Z0.0400 F1800.0 ; Width: 0.400mm
G1 X97.2899 Y42.6870 Z0.0400 F1800.0 ; Width: 0.400mm
G1 X97.4030 Y42.6270 Z0.0400 F1800.0 ; Width: 0.400mm
G1 X97.6030 Y42.6270 Z0.0400 F1800.0 ; Width: 0.400mm
G1 X97.7030 Y42.6750 Z0.0400 F1800.0 ; Width: 0.400mm
G1 X97.7336 Y42.7070 Z0.0400 F1800.0 ; Width: 0.400mm
G1 X97.8030 Y42.8470 Z0.0400 F1800.0 ; Width: 0.400mm
G1 X97.8630 Y43.0270 Z0.0400 F1800.0 ; Width: 0.400mm
G1 X97.9030 Y43.2070 Z0.0400 F919.4 ; Width: 0.783mm
G1 X97.9094 Y43.3070 Z0.0400 F867.2 ; Width: 0.830mm
G1 X97.9430 Y43.4870 Z0.0400 F811.8 ; Width: 0.887mm
G1 X97.9466 Y43.6070 Z0.0400 F783.1 ; Width: 0.919mm
G1 X97.9630 Y43.6870 Z0.0400 F771.4 ; Width: 0.933mm
G1 X97.9634 Y43.9670 Z0.0400 F750.9 ; Width: 0.959mm
G1 X97.9830 Y44.0870 Z0.0400 F740.3 ; Width: 0.973mm
G1 X97.9830 Y44.4470 Z0.0400 F708.6 ; Width: 1.016mm
G1 X97.9630 Y44.5870 Z0.0400 F667.1 ; Width: 1.079mm
G1 X97.9630 Y45.3870 Z0.0400 F649.3 ; Width: 1.109mm
G1 X97.9830 Y45.5270 Z0.0400 F760.9 ; Width: 0.946mm
G1 X97.9834 Y45.7070 Z0.0400 F607.2 ; Width: 1.186mm
G1 X97.9931 Y45.7870 Z0.0400 F600.0 ; Width: 1.200mm
G1 X98.0165 Y45.8670 Z0.0400 F600.0 ; Width: 1.200mm
G1 X98.0430 Y45.9244 Z0.0400 F600.0 ; Width: 1.200mm
G1 X98.1230 Y46.0339 Z0.0400 F622.0 ; Width: 1.158mm
G1 X98.1981 Y46.1070 Z0.0400 F669.7 ; Width: 1.075mm
G1 X98.2630 Y46.1541 Z0.0400 F699.8 ; Width: 1.029mm
G1 X98.3430 Y46.1935 Z0.0400 F715.7 ; Width: 1.006mm
G1 X98.4230 Y46.2169 Z0.0400 F782.9 ; Width: 0.920mm
G1 X98.5230 Y46.2270 Z0.0400 F846.7 ; Width: 0.850mm
G1 X100.5630 Y46.2266 Z0.0400 F613.4 ; Width: 1.174mm
G1 X100.6430 Y46.2169 Z0.0400 F718.6 ; Width: 1.002mm
G1 X100.7230 Y46.1935 Z0.0400 F718.7 ; Width: 1.002mm
G1 X100.8030 Y46.1541 Z0.0400 F718.0 ; Width: 1.003mm
G1 X100.8679 Y46.1070 Z0.0400 F717.6 ; Width: 1.003mm
M118 P0 S"10" ; Sync timer
G1 X100.9630 Y46.0119 Z0.0400 F717.9 ; Width: 1.003mm
G1 X101.0101 Y45.9470 Z0.0400 F718.8 ; Width: 1.002mm
G1 X101.0695 Y45.8270 Z0.0400 F717.0 ; Width: 1.004mm
G1 X101.0994 Y45.7070 Z0.0400 F717.2 ; Width: 1.004mm
G1 X101.1026 Y43.8470 Z0.0400 F649.7 ; Width: 1.108mm
G1 X101.0830 Y43.7270 Z0.0400 F659.7 ; Width: 1.091mm
G1 X101.0794 Y43.6070 Z0.0400 F683.9 ; Width: 1.053mm
G1 X101.0630 Y43.5270 Z0.0400 F698.6 ; Width: 1.031mm
G1 X101.0614 Y43.2470 Z0.0400 F715.9 ; Width: 1.006mm
G1 X101.0230 Y43.0270 Z0.0400 F717.4 ; Width: 1.004mm
G1 X101.0166 Y42.8470 Z0.0400 F717.2 ; Width: 1.004mm
G1 X100.9830 Y42.7070 Z0.0400 F710.9 ; Width: 1.013mm
G1 X100.9766 Y42.6070 Z0.0400 F714.0 ; Width: 1.008mm
G1 X100.9230 Y42.3870 Z0.0400 F718.1 ; Width: 1.003mm
G1 X100.8884 Y42.1670 Z0.0400 F715.5 ; Width: 1.006mm
G1 X100.7929 Y41.8670 Z0.0400 F706.3 ; Width: 1.019mm
G1 X100.7630 Y41.7470 Z0.0400 F706.3 ; Width: 1.019mm
G1 X100.6013 Y41.3270 Z0.0400 F708.0 ; Width: 1.017mm
G1 X100.4216 Y40.9670 Z0.0400 F701.8 ; Width: 1.026mm
G1 X100.3430 Y40.8470 Z0.0400 F714.1 ; Width: 1.008mm
G1 X100.2772 Y40.7270 Z0.0400 F713.8 ; Width: 1.009mm
G1 X100.0072 Y40.3670 Z0.0400 F705.6 ; Width: 1.020mm
G1 X99.7099 Y40.0670 Z0.0400 F706.3 ; Width: 1.019mm
G1 X99.5230 Y39.9070 Z0.0400 F715.8 ; Width: 1.006mm
G1 X99.2630 Y39.7284 Z0.0400 F716.7 ; Width: 1.005mm
G1 X99.0630 Y39.6180 Z0.0400 F713.7 ; Width: 1.009mm
G1 X98.8030 Y39.5005 Z0.0400 F709.7 ; Width: 1.015mm
G1 X98.6430 Y39.4470 Z0.0400 F717.1 ; Width: 1.004mm
G1 X98.4030 Y39.3816 Z0.0400 F714.2 ; Width: 1.008mm
G1 X98.2830 Y39.3670 Z0.0400 F712.6 ; Width: 1.010mm
G1 X98.1630 Y39.3334 Z0.0400 F712.7 ; Width: 1.010mm
G1 X98.0630 Y39.3270 Z0.0400 F716.3 ; Width: 1.005mm
G1 X97.9630 Y39.3086 Z0.0400 F716.1 ; Width: 1.005mm
G1 X97.8230 Y39.3070 Z0.0400 F713.8 ; Width: 1.009mm
G1 X97.7030 Y39.2874 Z0.0400 F714.2 ; Width: 1.008mm
G1 X97.3030 Y39.2874 Z0.0400 F698.0 ; Width: 1.032mm
G1 X97.1830 Y39.3070 Z0.0400 F715.0 ; Width: 1.007mm
G1 X97.0430 Y39.3086 Z0.0400 F712.7 ; Width: 1.010mm
G1 X96.9430 Y39.3270 Z0.0400 F716.6 ; Width: 1.005mm
G1 X96.8230 Y39.3371 Z0.0400 F715.2 ; Width: 1.007mm
G1 X96.7230 Y39.3670 Z0.0400 F714.0 ; Width: 1.008mm
G1 X96.6030 Y39.3816 Z0.0400 F714.3 ; Width: 1.008mm
G1 X96.3630 Y39.4470 Z0.0400 F711.1 ; Width: 1.013mm
G1 X96.2030 Y39.5005 Z0.0400 F716.3 ; Width: 1.005mm
G1 X95.8856 Y39.6470 Z0.0400 F715.7 ; Width: 1.006mm
G1 X95.6230 Y39.7999 Z0.0400 F711.6 ; Width: 1.012mm
G1 X95.5230 Y39.8670 Z0.0400 F717.7 ; Width: 1.003mm
G1 X95.2781 Y40.0670 Z0.0400 F710.7 ; Width: 1.013mm
G1 X95.0164 Y40.3270 Z0.0400 F717.0 ; Width: 1.004mm
G1 X94.7988 Y40.5870 Z0.0400 F684.7 ; Width: 1.052mm
G1 X94.6688 Y40.7670 Z0.0400 F662.6 ; Width: 1.087mm
G1 X94.5559 Y40.9470 Z0.0400 F658.3 ; Width: 1.094mm
G1 X94.3630 Y41.3312 Z0.0400 F656.9 ; Width: 1.096mm
G1 X94.1965 Y41.7470 Z0.0400 F662.2 ; Width: 1.087mm
G1 X94.1230 Y41.9870 Z0.0400 F656.3 ; Width: 1.097mm
G1 X94.0331 Y42.3270 Z0.0400 F652.2 ; Width: 1.104mm
G1 X93.9494 Y42.7870 Z0.0400 F647.6 ; Width: 1.112mm
G1 X93.9430 Y42.8670 Z0.0400 F659.5 ; Width: 1.092mm
G1 X93.9066 Y43.0670 Z0.0400 F655.2 ; Width: 1.099mm
G1 X93.9030 Y43.2670 Z0.0400 F664.9 ; Width: 1.083mm
G1 X93.8866 Y43.3470 Z0.0400 F661.2 ; Width: 1.089mm
G1 X93.8830 Y43.5070 Z0.0400 F660.6 ; Width: 1.090mm
G1 X93.8634 Y43.6270 Z0.0400 F660.6 ; Width: 1.090mm
M118 P0 S"11" ; Sync timer
G1 X93.8634 Y51.6470 Z0.0400 F600.0 ; Width: 1.200mm
G1 X93.8830 Y51.7670 Z0.0400 F660.2 ; Width: 1.091mm
G1 X93.8866 Y51.9270 Z0.0400 F658.7 ; Width: 1.093mm
G1 X93.9030 Y52.0070 Z0.0400 F660.6 ; Width: 1.090mm
G1 X93.9066 Y52.2470 Z0.0400 F664.9 ; Width: 1.083mm
G1 X93.9430 Y52.4470 Z0.0400 F655.6 ; Width: 1.098mm
G1 X93.9466 Y52.5270 Z0.0400 F662.2 ; Width: 1.087mm
G1 X93.9830 Y52.7270 Z0.0400 F657.8 ; Width: 1.095mm
G1 X93.9894 Y52.8070 Z0.0400 F659.5 ; Width: 1.092mm
G1 X94.0376 Y53.0670 Z0.0400 F656.2 ; Width: 1.097mm
G1 X94.1493 Y53.4870 Z0.0400 F654.7 ; Width: 1.100mm
G1 X94.2765 Y53.8670 Z0.0400 F650.7 ; Width: 1.107mm
G1 X94.4244 Y54.1870 Z0.0400 F657.6 ; Width: 1.095mm
G1 X94.4759 Y54.2670 Z0.0400 F663.2 ; Width: 1.086mm
G1 X94.5359 Y54.3870 Z0.0400 F660.4 ; Width: 1.090mm
G1 X94.5940 Y54.4670 Z0.0400 F666.4 ; Width: 1.080mm
G1 X94.6359 Y54.5470 Z0.0400 F667.2 ; Width: 1.079mm
G1 X94.7288 Y54.6870 Z0.0400 F659.4 ; Width: 1.092mm
G1 X94.9564 Y54.9670 Z0.0400 F665.1 ; Width: 1.083mm
G1 X95.3181 Y55.3270 Z0.0400 F717.7 ; Width: 1.003mm
G1 X95.5830 Y55.5212 Z0.0400 F708.7 ; Width: 1.016mm
G1 X95.8030 Y55.6560 Z0.0400 F714.3 ; Width: 1.008mm
G1 X96.1030 Y55.8053 Z0.0400 F701.9 ; Width: 1.026mm
G1 X96.2030 Y55.8369 Z0.0400 F715.8 ; Width: 1.006mm
G1 X96.2830 Y55.8735 Z0.0400 F714.9 ; Width: 1.007mm
G1 X96.5230 Y55.9470 Z0.0400 F713.3 ; Width: 1.009mm
G1 X96.6230 Y55.9670 Z0.0400 F715.9 ; Width: 1.006mm
G1 X96.7030 Y55.9924 Z0.0400 F713.2 ; Width: 1.010mm
G1 X96.7830 Y56.0054 Z0.0400 F718.8 ; Width: 1.002mm
G1 X96.8830 Y56.0070 Z0.0400 F717.5 ; Width: 1.004mm
G1 X97.0230 Y56.0434 Z0.0400 F774.0 ; Width: 0.930mm
G1 X97.8830 Y56.0470 Z0.0400 F1674.4 ; Width: 0.430mm
G0 Z1.0400 F6000.0 ; Z-hop up
G0 X92.9230 Y55.8470 F6000.0 ; Travel to new path
G0 Z0.0400 F6000.0 ; Z-hop down
G1 X93.0230 Y55.8369 Z0.0400 F3600.0 ; Width: 0.200mm
G1 X93.1030 Y55.8135 Z0.0400 F3600.0 ; Width: 0.200mm
G1 X93.1942 Y55.7670 Z0.0400 F3095.2 ; Width: 0.233mm
G1 X93.2699 Y55.7070 Z0.0400 F2194.9 ; Width: 0.328mm
G1 X93.3630 Y55.6070 Z0.0400 F1647.8 ; Width: 0.437mm
G1 X93.4120 Y55.5270 Z0.0400 F1327.5 ; Width: 0.542mm
G1 X93.4484 Y55.4270 Z0.0400 F1146.9 ; Width: 0.628mm
G1 X93.4626 Y55.3270 Z0.0400 F1013.7 ; Width: 0.710mm
M118 P0 S"12" ; Sync timer
G1 X93.4630 Y40.0670 Z0.0400 F600.0 ; Width: 1.200mm
G1 X93.4484 Y39.9470 Z0.0400 F701.9 ; Width: 1.026mm
G1 X93.4016 Y39.8270 Z0.0400 F717.0 ; Width: 1.004mm
G1 X93.3230 Y39.7201 Z0.0400 F716.3 ; Width: 1.005mm
G1 X93.2430 Y39.6404 Z0.0400 F718.4 ; Width: 1.002mm
G1 X93.1742 Y39.5870 Z0.0400 F718.2 ; Width: 1.003mm
G1 X93.1030 Y39.5487 Z0.0400 F718.7 ; Width: 1.002mm
G1 X93.0430 Y39.5270 Z0.0400 F718.9 ; Width: 1.002mm
G1 X92.9030 Y39.5070 Z0.0400 F716.3 ; Width: 1.005mm
G1 X91.0630 Y39.5106 Z0.0400 F629.4 ; Width: 1.144mm
G1 X90.9430 Y39.5405 Z0.0400 F717.1 ; Width: 1.004mm
G1 X90.8230 Y39.6070 Z0.0400 F716.1 ; Width: 1.005mm
G1 X90.6964 Y39.7270 Z0.0400 F714.2 ; Width: 1.008mm
G1 X90.6244 Y39.8270 Z0.0400 F760.0 ; Width: 0.947mm
G1 X90.5776 Y39.9470 Z0.0400 F823.2 ; Width: 0.875mm
G1 X90.5630 Y40.0670 Z0.0400 F879.6 ; Width: 0.819mm
G1 X90.5630 Y45.0270 Z0.0400 F1771.5 ; Width: 0.406mm
G1 X90.5430 Y45.0470 Z0.0400 F662.5 ; Width: 1.087mm
G1 X90.5166 Y44.8270 Z0.0400 F662.9 ; Width: 1.086mm
G1 X90.4830 Y44.6670 Z0.0400 F664.4 ; Width: 1.084mm
G1 X90.4766 Y44.5870 Z0.0400 F663.1 ; Width: 1.086mm
G1 X90.4430 Y44.4070 Z0.0400 F660.1 ; Width: 1.091mm
G1 X90.4394 Y44.3270 Z0.0400 F664.9 ; Width: 1.083mm
G1 X90.4030 Y44.1270 Z0.0400 F1800.0 ; Width: 0.400mm
G1 X90.3966 Y44.0270 Z0.0400 F1800.0 ; Width: 0.400mm
G1 X90.3630 Y43.8870 Z0.0400 F1800.0 ; Width: 0.400mm
G1 X90.3594 Y43.8070 Z0.0400 F1800.0 ; Width: 0.400mm
G1 X90.3230 Y43.6270 Z0.0400 F1800.0 ; Width: 0.400mm
G1 X90.3166 Y43.5270 Z0.0400 F1800.0 ; Width: 0.400mm
G1 X90.2830 Y43.3670 Z0.0400 F1800.0 ; Width: 0.400mm
G1 X90.2729 Y43.2670 Z0.0400 F1800.0 ; Width: 0.400mm
G1 X90.2430 Y43.1470 Z0.0400 F1800.0 ; Width: 0.400mm
G1 X90.2366 Y43.0270 Z0.0400 F1800.0 ; Width: 0.400mm
G1 X90.2030 Y42.8870 Z0.0400 F1800.0 ; Width: 0.400mm
G1 X90.1966 Y42.7870 Z0.0400 F1800.0 ; Width: 0.400mm
G1 X90.1630 Y42.6470 Z0.0400 F657.0 ; Width: 1.096mm
G1 X90.1566 Y42.5470 Z0.0400 F1800.0 ; Width: 0.400mm
G1 X90.1230 Y42.3870 Z0.0400 F1800.0 ; Width: 0.400mm
G1 X90.1166 Y42.2670 Z0.0400 F1800.0 ; Width: 0.400mm
G1 X90.0830 Y42.1270 Z0.0400 F1800.0 ; Width: 0.400mm
G1 X90.0030 Y41.6470 Z0.0400 F661.1 ; Width: 1.089mm
G1 X89.9929 Y41.5270 Z0.0400 F1800.0 ; Width: 0.400mm
G1 X89.9684 Y41.4070 Z0.0400 F1800.0 ; Width: 0.400mm
G1 X89.9430 Y41.3270 Z0.0400 F1800.0 ; Width: 0.400mm
G1 X89.9394 Y41.2270 Z0.0400 F1800.0 ; Width: 0.400mm
G1 X89.9030 Y41.0670 Z0.0400 F662.2 ; Width: 1.087mm
G1 X89.8966 Y40.9470 Z0.0400 F1800.0 ; Width: 0.400mm
G1 X89.8630 Y40.7870 Z0.0400 F1800.0 ; Width: 0.400mm
G1 X89.8529 Y40.6870 Z0.0400 F1800.0 ; Width: 0.400mm
G1 X89.8230 Y40.5870 Z0.0400 F1800.0 ; Width: 0.400mm
G1 X89.8166 Y40.4470 Z0.0400 F828.7 ; Width: 0.869mm
G1 X89.7830 Y40.3270 Z0.0400 F870.0 ; Width: 0.828mm
G1 X89.7766 Y40.2070 Z0.0400 F890.7 ; Width: 0.808mm
G1 X89.7430 Y40.0670 Z0.0400 F893.0 ; Width: 0.806mm
G1 X89.7284 Y39.9470 Z0.0400 F868.0 ; Width: 0.829mm
G1 X89.6920 Y39.8470 Z0.0400 F828.7 ; Width: 0.869mm
G1 X89.6230 Y39.7421 Z0.0400 F772.0 ; Width: 0.933mm
G1 X89.4830 Y39.6070 Z0.0400 F712.7 ; Width: 1.010mm
G1 X89.3630 Y39.5405 Z0.0400 F716.4 ; Width: 1.005mm
G1 X89.2430 Y39.5106 Z0.0400 F716.8 ; Width: 1.004mm
G1 X88.0630 Y39.5086 Z0.0400 F654.8 ; Width: 1.100mm
G1 X87.9830 Y39.5216 Z0.0400 F717.6 ; Width: 1.003mm
G1 X87.9230 Y39.5405 Z0.0400 F717.7 ; Width: 1.003mm
G1 X87.8030 Y39.6070 Z0.0400 F716.2 ; Width: 1.005mm
G1 X87.6764 Y39.7270 Z0.0400 F715.3 ; Width: 1.007mm
G1 X87.6044 Y39.8270 Z0.0400 F729.6 ; Width: 0.987mm
G1 X87.5630 Y39.9270 Z0.0400 F784.3 ; Width: 0.918mm
G1 X87.5446 Y40.0270 Z0.0400 F822.4 ; Width: 0.875mm
G1 X87.5131 Y40.1270 Z0.0400 F1800.0 ; Width: 0.400mm
G1 X87.5030 Y40.2670 Z0.0400 F1800.0 ; Width: 0.400mm
G1 X87.4694 Y40.3870 Z0.0400 F852.8 ; Width: 0.844mm
G1 X87.4630 Y40.4870 Z0.0400 F831.2 ; Width: 0.866mm
G1 X87.4266 Y40.6470 Z0.0400 F1800.0 ; Width: 0.400mm
G1 X87.4230 Y40.7470 Z0.0400 F1800.0 ; Width: 0.400mm
G1 X87.3931 Y40.8470 Z0.0400 F1800.0 ; Width: 0.400mm
G1 X87.3830 Y40.9870 Z0.0400 F1800.0 ; Width: 0.400mm
G1 X87.3494 Y41.1270 Z0.0400 F1800.0 ; Width: 0.400mm
G1 X87.3430 Y41.2470 Z0.0400 F1800.0 ; Width: 0.400mm
G1 X87.3131 Y41.3470 Z0.0400 F1800.0 ; Width: 0.400mm
G1 X87.3030 Y41.4870 Z0.0400 F1800.0 ; Width: 0.400mm
G1 X87.2694 Y41.6070 Z0.0400 F1800.0 ; Width: 0.400mm
G1 X87.2630 Y41.6870 Z0.0400 F1800.0 ; Width: 0.400mm
G1 X87.2294 Y41.8470 Z0.0400 F1800.0 ; Width: 0.400mm
G1 X87.2230 Y41.9270 Z0.0400 F1800.0 ; Width: 0.400mm
G1 X87.1894 Y42.1070 Z0.0400 F1800.0 ; Width: 0.400mm
G1 X87.1830 Y42.2070 Z0.0400 F1800.0 ; Width: 0.400mm
G1 X87.1294 Y42.4070 Z0.0400 F1800.0 ; Width: 0.400mm
G1 X87.1230 Y42.5270 Z0.0400 F1800.0 ; Width: 0.400mm
G1 X87.0894 Y42.6870 Z0.0400 F1800.0 ; Width: 0.400mm
G1 X87.0630 Y42.9070 Z0.0400 F658.4 ; Width: 1.094mm
G1 X87.0094 Y43.1470 Z0.0400 F665.5 ; Width: 1.082mm
G1 X87.0030 Y43.2670 Z0.0400 F1800.0 ; Width: 0.400mm
G1 X86.9694 Y43.4070 Z0.0400 F1800.0 ; Width: 0.400mm
G1 X86.9630 Y43.5070 Z0.0400 F1800.0 ; Width: 0.400mm
G1 X86.9331 Y43.6270 Z0.0400 F1800.0 ; Width: 0.400mm
G1 X86.9230 Y43.7470 Z0.0400 F1800.0 ; Width: 0.400mm
G1 X86.8894 Y43.8870 Z0.0400 F1800.0 ; Width: 0.400mm
G1 X86.8830 Y44.0070 Z0.0400 F1800.0 ; Width: 0.400mm
G1 X86.8494 Y44.1270 Z0.0400 F1800.0 ; Width: 0.400mm
G1 X86.8430 Y44.2470 Z0.0400 F1800.0 ; Width: 0.400mm
G1 X86.8131 Y44.3470 Z0.0400 F1800.0 ; Width: 0.400mm
G1 X86.8030 Y44.4870 Z0.0400 F1800.0 ; Width: 0.400mm
G1 X86.7694 Y44.6070 Z0.0400 F1800.0 ; Width: 0.400mm
G1 X86.7630 Y44.7470 Z0.0400 F657.0 ; Width: 1.096mm
G1 X86.7331 Y44.8470 Z0.0400 F661.6 ; Width: 1.088mm
G1 X86.7230 Y44.9670 Z0.0400 F659.7 ; Width: 1.091mm
G1 X86.7030 Y45.0470 Z0.0400 F663.6 ; Width: 1.085mm
G1 X86.6830 Y45.0270 Z0.0400 F687.4 ; Width: 1.047mm
G1 X86.6830 Y40.0670 Z0.0400 F1674.9 ; Width: 0.430mm
G1 X86.6684 Y39.9470 Z0.0400 F851.1 ; Width: 0.846mm
G1 X86.6320 Y39.8470 Z0.0400 F806.2 ; Width: 0.893mm
G1 X86.5630 Y39.7421 Z0.0400 F739.1 ; Width: 0.974mm
G1 X86.4230 Y39.6070 Z0.0400 F713.9 ; Width: 1.009mm
G1 X86.3030 Y39.5405 Z0.0400 F716.6 ; Width: 1.005mm
G1 X86.1830 Y39.5106 Z0.0400 F717.0 ; Width: 1.004mm
G1 X84.3430 Y39.5074 Z0.0400 F629.6 ; Width: 1.144mm
G1 X84.2230 Y39.5270 Z0.0400 F716.6 ; Width: 1.005mm
G1 X84.1230 Y39.5684 Z0.0400 F717.2 ; Width: 1.004mm
G1 X84.0161 Y39.6470 Z0.0400 F779.8 ; Width: 0.923mm
G1 X83.9364 Y39.7270 Z0.0400 F886.9 ; Width: 0.812mm
G1 X83.8830 Y39.7958 Z0.0400 F991.0 ; Width: 0.727mm
G1 X83.8447 Y39.8670 Z0.0400 F1082.8 ; Width: 0.665mm
G1 X83.8230 Y39.9270 Z0.0400 F1152.2 ; Width: 0.625mm
M118 P0 S"13" ; Sync timer
G1 X83.8030 Y40.0670 Z0.0400 F1211.8 ; Width: 0.594mm
G1 X83.8030 Y55.3070 Z0.0400 F600.0 ; Width: 1.200mm
G1 X83.8176 Y55.4270 Z0.0400 F1218.8 ; Width: 0.591mm
G1 X83.8644 Y55.5470 Z0.0400 F1129.1 ; Width: 0.638mm
G1 X83.9364 Y55.6470 Z0.0400 F1003.3 ; Width: 0.718mm
G1 X84.0181 Y55.7270 Z0.0400 F879.9 ; Width: 0.818mm
G1 X84.0718 Y55.7670 Z0.0400 F798.2 ; Width: 0.902mm
G1 X84.1830 Y55.8207 Z0.0400 F723.9 ; Width: 0.995mm
G1 X84.2430 Y55.8369 Z0.0400 F718.3 ; Width: 1.002mm
G1 X84.3230 Y55.8466 Z0.0400 F718.1 ; Width: 1.003mm
G1 X87.1430 Y55.8454 Z0.0400 F600.0 ; Width: 1.200mm
G1 X87.2430 Y55.8270 Z0.0400 F717.8 ; Width: 1.003mm
G1 X87.3430 Y55.7856 Z0.0400 F717.9 ; Width: 1.003mm
G1 X87.4279 Y55.7270 Z0.0400 F717.8 ; Width: 1.003mm
G1 X87.5230 Y55.6270 Z0.0400 F717.3 ; Width: 1.004mm
G1 X87.5616 Y55.5670 Z0.0400 F719.1 ; Width: 1.001mm
G1 X87.6095 Y55.4670 Z0.0400 F716.7 ; Width: 1.005mm
G1 X87.6766 Y55.2270 Z0.0400 F1800.0 ; Width: 0.400mm
G1 X87.6830 Y55.1070 Z0.0400 F1800.0 ; Width: 0.400mm
G1 X87.7166 Y54.9870 Z0.0400 F1800.0 ; Width: 0.400mm
G1 X87.7230 Y54.8670 Z0.0400 F1800.0 ; Width: 0.400mm
G1 X87.7594 Y54.7070 Z0.0400 F1800.0 ; Width: 0.400mm
G1 X87.7630 Y54.6070 Z0.0400 F1800.0 ; Width: 0.400mm
G1 X87.7929 Y54.5070 Z0.0400 F1800.0 ; Width: 0.400mm
G1 X87.8030 Y54.3870 Z0.0400 F1800.0 ; Width: 0.400mm
G1 X87.8366 Y54.2470 Z0.0400 F1800.0 ; Width: 0.400mm
G1 X87.8430 Y54.1270 Z0.0400 F1800.0 ; Width: 0.400mm
G1 X87.8794 Y53.9670 Z0.0400 F1800.0 ; Width: 0.400mm
G1 X87.8830 Y53.8670 Z0.0400 F1800.0 ; Width: 0.400mm
G1 X87.9129 Y53.7670 Z0.0400 F1800.0 ; Width: 0.400mm
G1 X87.9594 Y53.4870 Z0.0400 F1800.0 ; Width: 0.400mm
G1 X87.9630 Y53.4070 Z0.0400 F1800.0 ; Width: 0.400mm
G1 X87.9966 Y53.2670 Z0.0400 F1800.0 ; Width: 0.400mm
G1 X88.0030 Y53.1470 Z0.0400 F1800.0 ; Width: 0.400mm
M118 P0 S"14" ; Sync timer
G1 X88.0284 Y53.0670 Z0.0400 F1800.0 ; Width: 0.400mm
G1 X88.0529 Y52.9470 Z0.0400 F1800.0 ; Width: 0.400mm
G1 X88.0830 Y52.7070 Z0.0400 F1800.0 ; Width: 0.400mm
G1 X88.1129 Y52.5870 Z0.0400 F1800.0 ; Width: 0.400mm
G1 X88.1430 Y52.3870 Z0.0400 F1800.0 ; Width: 0.400mm
G1 X88.1766 Y52.2470 Z0.0400 F767.4 ; Width: 0.938mm
G1 X88.1830 Y52.1470 Z0.0400 F803.2 ; Width: 0.896mm
G1 X88.2194 Y51.9870 Z0.0400 F829.9 ; Width: 0.868mm
G1 X88.2230 Y51.9070 Z0.0400 F877.7 ; Width: 0.820mm
G1 X88.2529 Y51.7870 Z0.0400 F908.5 ; Width: 0.793mm
G1 X88.2630 Y51.6870 Z0.0400 F946.5 ; Width: 0.761mm
G1 X88.2966 Y51.5470 Z0.0400 F1016.9 ; Width: 0.708mm
G1 X88.3030 Y51.4270 Z0.0400 F1095.4 ; Width: 0.657mm
G1 X88.3329 Y51.3270 Z0.0400 F1140.0 ; Width: 0.632mm
G1 X88.3430 Y51.2270 Z0.0400 F1218.6 ; Width: 0.591mm
G1 X88.3794 Y51.0470 Z0.0400 F1313.0 ; Width: 0.548mm
G1 X88.3830 Y50.9670 Z0.0400 F1432.0 ; Width: 0.503mm
G1 X88.4166 Y50.8270 Z0.0400 F1532.7 ; Width: 0.470mm
G1 X88.4230 Y50.7070 Z0.0400 F1724.9 ; Width: 0.417mm
G1 X88.4529 Y50.6070 Z0.0400 F1833.7 ; Width: 0.393mm
G1 X88.4630 Y50.5070 Z0.0400 F2061.4 ; Width: 0.349mm
G1 X88.4966 Y50.3470 Z0.0400 F2320.3 ; Width: 0.310mm
G1 X88.5030 Y50.2270 Z0.0400 F2487.0 ; Width: 0.290mm
G1 X88.5766 Y49.8270 Z0.0400 F1473.6 ; Width: 0.489mm
G1 X88.6230 Y49.4670 Z0.0400 F760.5 ; Width: 0.947mm
G1 X88.6258 Y49.5070 Z0.0400 F664.0 ; Width: 1.084mm
G1 X88.6630 Y49.6270 Z0.0400 F1800.0 ; Width: 0.400mm
G1 X88.6731 Y49.7470 Z0.0400 F1800.0 ; Width: 0.400mm
G1 X88.7030 Y49.8470 Z0.0400 F1800.0 ; Width: 0.400mm
G1 X88.7094 Y49.9670 Z0.0400 F1800.0 ; Width: 0.400mm
G1 X88.7430 Y50.0870 Z0.0400 F1315.2 ; Width: 0.547mm
G1 X88.7466 Y50.1870 Z0.0400 F2214.3 ; Width: 0.325mm
G1 X88.7830 Y50.3470 Z0.0400 F2718.6 ; Width: 0.265mm
G1 X88.7894 Y50.4470 Z0.0400 F2449.4 ; Width: 0.294mm
G1 X88.8230 Y50.5670 Z0.0400 F2097.8 ; Width: 0.343mm
G1 X88.8294 Y50.6870 Z0.0400 F1925.8 ; Width: 0.374mm
G1 X88.8630 Y50.8070 Z0.0400 F1724.5 ; Width: 0.418mm
G1 X88.8694 Y50.8870 Z0.0400 F1599.6 ; Width: 0.450mm
G1 X88.9030 Y51.0270 Z0.0400 F1477.5 ; Width: 0.487mm
G1 X88.9094 Y51.1270 Z0.0400 F1364.4 ; Width: 0.528mm
G1 X88.9430 Y51.2670 Z0.0400 F1269.8 ; Width: 0.567mm
G1 X88.9494 Y51.3870 Z0.0400 F1177.5 ; Width: 0.611mm
G1 X88.9830 Y51.5070 Z0.0400 F1117.0 ; Width: 0.645mm
G1 X89.0230 Y51.7270 Z0.0400 F1014.2 ; Width: 0.710mm
G1 X89.0294 Y51.8070 Z0.0400 F944.7 ; Width: 0.762mm
G1 X89.0630 Y51.9670 Z0.0400 F900.4 ; Width: 0.800mm
G1 X89.0694 Y52.0870 Z0.0400 F849.3 ; Width: 0.848mm
G1 X89.1230 Y52.2870 Z0.0400 F800.6 ; Width: 0.899mm
G1 X89.1266 Y52.3670 Z0.0400 F756.6 ; Width: 0.952mm
G1 X89.1630 Y52.5470 Z0.0400 F726.7 ; Width: 0.991mm
G1 X89.1694 Y52.6270 Z0.0400 F1800.0 ; Width: 0.400mm
G1 X89.2131 Y52.8670 Z0.0400 F1800.0 ; Width: 0.400mm
G1 X89.2430 Y52.9670 Z0.0400 F1800.0 ; Width: 0.400mm
G1 X89.2494 Y53.0870 Z0.0400 F1800.0 ; Width: 0.400mm
G1 X89.2830 Y53.2070 Z0.0400 F1800.0 ; Width: 0.400mm
G1 X89.2894 Y53.3270 Z0.0400 F1800.0 ; Width: 0.400mm
G1 X89.3230 Y53.4470 Z0.0400 F1800.0 ; Width: 0.400mm
G1 X89.3294 Y53.5670 Z0.0400 F1800.0 ; Width: 0.400mm
G1 X89.3630 Y53.6870 Z0.0400 F1800.0 ; Width: 0.400mm
G1 X89.3666 Y53.7870 Z0.0400 F1800.0 ; Width: 0.400mm
G1 X89.4030 Y53.9270 Z0.0400 F1800.0 ; Width: 0.400mm
G1 X89.4094 Y54.0270 Z0.0400 F1800.0 ; Width: 0.400mm
G1 X89.4430 Y54.1470 Z0.0400 F1800.0 ; Width: 0.400mm
G1 X89.4466 Y54.2670 Z0.0400 F1800.0 ; Width: 0.400mm
G1 X89.4830 Y54.4070 Z0.0400 F1800.0 ; Width: 0.400mm
G1 X89.4866 Y54.5070 Z0.0400 F1800.0 ; Width: 0.400mm
G1 X89.5230 Y54.6670 Z0.0400 F1800.0 ; Width: 0.400mm
G1 X89.5294 Y54.7670 Z0.0400 F1800.0 ; Width: 0.400mm
G1 X89.5630 Y54.8870 Z0.0400 F1800.0 ; Width: 0.400mm
G1 X89.5731 Y55.0070 Z0.0400 F1800.0 ; Width: 0.400mm
G1 X89.6030 Y55.1070 Z0.0400 F1800.0 ; Width: 0.400mm
G1 X89.6131 Y55.2670 Z0.0400 F1800.0 ; Width: 0.400mm
G1 X89.6565 Y55.4070 Z0.0400 F1800.0 ; Width: 0.400mm
G1 X89.7047 Y55.5270 Z0.0400 F716.8 ; Width: 1.004mm
G1 X89.7488 Y55.6070 Z0.0400 F718.4 ; Width: 1.002mm
G1 X89.8361 Y55.7070 Z0.0400 F715.5 ; Width: 1.006mm
G1 X89.9230 Y55.7741 Z0.0400 F717.6 ; Width: 1.003mm
G1 X90.0230 Y55.8207 Z0.0400 F717.5 ; Width: 1.004mm
G1 X90.1430 Y55.8454 Z0.0400 F717.1 ; Width: 1.004mm
G1 X92.9230 Y55.8470 Z0.0400 F600.0 ; Width: 1.200mm
G0 Z1.0400 F6000.0 ; Z-hop up
G0 X82.6830 Y55.8470 F6000.0 ; Travel to new path
G0 Z0.0400 F6000.0 ; Z-hop down
G1 X82.7830 Y55.8369 Z0.0400 F3600.0 ; Width: 0.200mm
G1 X82.8830 Y55.8053 Z0.0400 F3600.0 ; Width: 0.200mm
G1 X82.9830 Y55.7470 Z0.0400 F2770.8 ; Width: 0.260mm
G1 X83.0630 Y55.6739 Z0.0400 F1965.1 ; Width: 0.366mm
G1 X83.1230 Y55.5982 Z0.0400 F1561.5 ; Width: 0.461mm
G1 X83.1813 Y55.4870 Z0.0400 F1287.5 ; Width: 0.559mm
G1 X83.2084 Y55.4070 Z0.0400 F1155.5 ; Width: 0.623mm
G1 X83.2226 Y55.3070 Z0.0400 F1221.1 ; Width: 0.590mm
M118 P0 S"15" ; Sync timer
G1 X83.2230 Y40.0670 Z0.0400 F600.0 ; Width: 1.200mm
G1 X83.2129 Y39.9670 Z0.0400 F1226.2 ; Width: 0.587mm
G1 X83.1895 Y39.8870 Z0.0400 F1165.3 ; Width: 0.618mm
G1 X83.1501 Y39.8070 Z0.0400 F1094.0 ; Width: 0.658mm
G1 X83.1072 Y39.7470 Z0.0400 F1013.5 ; Width: 0.710mm
G1 X82.9630 Y39.6070 Z0.0400 F871.0 ; Width: 0.827mm
G1 X82.9004 Y39.5670 Z0.0400 F754.8 ; Width: 0.954mm
G1 X82.8230 Y39.5333 Z0.0400 F717.7 ; Width: 1.003mm
G1 X82.7630 Y39.5171 Z0.0400 F718.7 ; Width: 1.002mm
G1 X82.6830 Y39.5074 Z0.0400 F718.6 ; Width: 1.002mm
G1 X80.6030 Y39.5106 Z0.0400 F604.8 ; Width: 1.190mm
G1 X80.5030 Y39.5333 Z0.0400 F718.0 ; Width: 1.003mm
G1 X80.3918 Y39.5870 Z0.0400 F717.2 ; Width: 1.004mm
G1 X80.3161 Y39.6470 Z0.0400 F718.1 ; Width: 1.003mm
G1 X80.2088 Y39.7670 Z0.0400 F716.8 ; Width: 1.004mm
G1 X80.1293 Y39.9270 Z0.0400 F689.8 ; Width: 1.044mm
G1 X80.1094 Y40.0070 Z0.0400 F646.9 ; Width: 1.113mm
G1 X80.1030 Y40.0870 Z0.0400 F612.9 ; Width: 1.175mm
G1 X80.1030 Y46.3070 Z0.0400 F600.0 ; Width: 1.200mm
G1 X80.0830 Y46.3270 Z0.0400 F600.0 ; Width: 1.200mm
G1 X78.9430 Y46.3270 Z0.0400 F600.0 ; Width: 1.200mm
G1 X78.9230 Y46.3070 Z0.0400 F600.0 ; Width: 1.200mm
M118 P0 S"16" ; Sync timer
G1 X78.9230 Y40.0870 Z0.0400 F600.0 ; Width: 1.200mm
G1 X78.9129 Y39.9870 Z0.0400 F616.9 ; Width: 1.167mm
G1 X78.8895 Y39.9070 Z0.0400 F655.0 ; Width: 1.099mm
G1 X78.8172 Y39.7670 Z0.0400 F693.5 ; Width: 1.038mm
G1 X78.7696 Y39.7070 Z0.0400 F717.4 ; Width: 1.004mm
G1 X78.7030 Y39.6428 Z0.0400 F718.2 ; Width: 1.002mm
G1 X78.6430 Y39.5999 Z0.0400 F718.9 ; Width: 1.002mm
G1 X78.5430 Y39.5487 Z0.0400 F718.6 ; Width: 1.002mm
G1 X78.4830 Y39.5270 Z0.0400 F719.3 ; Width: 1.001mm
G1 X78.4030 Y39.5106 Z0.0400 F718.3 ; Width: 1.002mm
G1 X76.3630 Y39.5070 Z0.0400 F608.6 ; Width: 1.183mm
G1 X76.2630 Y39.5171 Z0.0400 F717.2 ; Width: 1.004mm
G1 X76.1830 Y39.5405 Z0.0400 F718.7 ; Width: 1.002mm
G1 X76.0830 Y39.5884 Z0.0400 F717.9 ; Width: 1.003mm
G1 X76.0230 Y39.6270 Z0.0400 F718.3 ; Width: 1.002mm
G1 X75.9030 Y39.7470 Z0.0400 F715.4 ; Width: 1.006mm
G1 X75.8644 Y39.8070 Z0.0400 F718.9 ; Width: 1.002mm
G1 X75.8165 Y39.9070 Z0.0400 F708.7 ; Width: 1.016mm
G1 X75.7931 Y39.9870 Z0.0400 F685.3 ; Width: 1.051mm
G1 X75.7834 Y40.0670 Z0.0400 F655.9 ; Width: 1.098mm
M118 P0 S"17" ; Sync timer
G1 X75.7830 Y55.2670 Z0.0400 F600.0 ; Width: 1.200mm
G1 X75.7931 Y55.3670 Z0.0400 F651.5 ; Width: 1.105mm
G1 X75.8165 Y55.4470 Z0.0400 F685.3 ; Width: 1.051mm
G1 X75.8644 Y55.5470 Z0.0400 F708.7 ; Width: 1.016mm
G1 X75.9030 Y55.6070 Z0.0400 F718.9 ; Width: 1.002mm
G1 X76.0230 Y55.7312 Z0.0400 F715.6 ; Width: 1.006mm
G1 X76.0830 Y55.7741 Z0.0400 F719.0 ; Width: 1.001mm
G1 X76.1630 Y55.8135 Z0.0400 F718.1 ; Width: 1.003mm
G1 X76.2230 Y55.8324 Z0.0400 F719.2 ; Width: 1.001mm
G1 X76.3030 Y55.8454 Z0.0400 F718.8 ; Width: 1.002mm
G1 X78.4230 Y55.8454 Z0.0400 F604.6 ; Width: 1.191mm
G1 X78.5230 Y55.8270 Z0.0400 F717.8 ; Width: 1.003mm
G1 X78.6230 Y55.7856 Z0.0400 F717.8 ; Width: 1.003mm
G1 X78.7079 Y55.7270 Z0.0400 F717.9 ; Width: 1.003mm
G1 X78.8030 Y55.6270 Z0.0400 F717.3 ; Width: 1.004mm
G1 X78.8416 Y55.5670 Z0.0400 F711.0 ; Width: 1.013mm
G1 X78.8895 Y55.4670 Z0.0400 F688.1 ; Width: 1.046mm
G1 X78.9129 Y55.3870 Z0.0400 F655.0 ; Width: 1.099mm
G1 X78.9226 Y55.3070 Z0.0400 F621.5 ; Width: 1.159mm
G1 X78.9230 Y49.6470 Z0.0400 F600.0 ; Width: 1.200mm
G1 X78.9430 Y49.6270 Z0.0400 F600.0 ; Width: 1.200mm
G1 X80.0830 Y49.6270 Z0.0400 F600.0 ; Width: 1.200mm
G1 X80.1030 Y49.6470 Z0.0400 F660.3 ; Width: 1.090mm
G1 X80.1030 Y55.2670 Z0.0400 F600.0 ; Width: 1.200mm
G1 X80.1176 Y55.3870 Z0.0400 F611.8 ; Width: 1.177mm
G1 X80.1647 Y55.5270 Z0.0400 F664.5 ; Width: 1.083mm
G1 X80.2388 Y55.6470 Z0.0400 F706.7 ; Width: 1.019mm
G1 X80.3430 Y55.7470 Z0.0400 F716.5 ; Width: 1.005mm
G1 X80.4630 Y55.8135 Z0.0400 F716.4 ; Width: 1.005mm
G1 X80.5830 Y55.8434 Z0.0400 F717.2 ; Width: 1.004mm
G1 X82.6830 Y55.8470 Z0.0400 F685.7 ; Width: 1.050mm
G0 Z1.0400 F6000.0 ; Z-hop up
G0 X102.0630 Y49.9030 F6000.0 ; Travel to new path
G0 Z0.0400 F6000.0 ; Z-hop down
M118 P0 S"18" ; Sync timer (Travel)
G1 X101.9945 Y49.6870 Z0.0400 F3600.0 ; Width: 0.200mm
G1 X101.8989 Y49.4870 Z0.0400 F2185.1 ; Width: 0.330mm
G1 X101.7977 Y49.3270 Z0.0400 F1347.6 ; Width: 0.534mm
G1 X101.6639 Y49.1670 Z0.0400 F985.6 ; Width: 0.730mm
G1 X101.5030 Y49.0145 Z0.0400 F766.0 ; Width: 0.940mm
G1 X101.3250 Y48.8870 Z0.0400 F721.4 ; Width: 0.998mm
G1 X101.1430 Y48.7922 Z0.0400 F721.3 ; Width: 0.998mm
G1 X100.9430 Y48.7213 Z0.0400 F722.5 ; Width: 0.997mm
G1 X100.7630 Y48.6832 Z0.0400 F721.4 ; Width: 0.998mm
G1 X100.5830 Y48.6675 Z0.0400 F720.5 ; Width: 0.999mm
G1 X99.3630 Y48.6670 Z0.0400 F625.6 ; Width: 1.151mm
G1 X99.1430 Y48.6475 Z0.0400 F721.0 ; Width: 0.999mm
G1 X98.5630 Y48.6471 Z0.0400 F695.1 ; Width: 1.036mm
G1 X98.3230 Y48.6697 Z0.0400 F722.7 ; Width: 0.996mm
G1 X98.1830 Y48.7013 Z0.0400 F720.2 ; Width: 1.000mm
G1 X98.0030 Y48.7600 Z0.0400 F720.3 ; Width: 1.000mm
G1 X97.9830 Y48.7470 Z0.0400 F713.1 ; Width: 1.010mm
G1 X97.9830 Y47.1470 Z0.0400 F600.0 ; Width: 1.200mm
G1 X98.0030 Y47.1340 Z0.0400 F713.1 ; Width: 1.010mm
G1 X98.1230 Y47.1727 Z0.0400 F720.1 ; Width: 1.000mm
G1 X98.2430 Y47.2006 Z0.0400 F720.7 ; Width: 0.999mm
G1 X98.3630 Y47.2184 Z0.0400 F720.1 ; Width: 1.000mm
G1 X98.5030 Y47.2269 Z0.0400 F720.2 ; Width: 1.000mm
G1 X100.5830 Y47.2265 Z0.0400 F600.0 ; Width: 1.200mm
G1 X100.7630 Y47.2108 Z0.0400 F721.4 ; Width: 0.998mm
G1 X100.9430 Y47.1727 Z0.0400 F722.0 ; Width: 0.997mm
G1 X101.1430 Y47.1018 Z0.0400 F722.5 ; Width: 0.997mm
G1 X101.3250 Y47.0070 Z0.0400 F721.3 ; Width: 0.998mm
G1 X101.5030 Y46.8795 Z0.0400 F721.4 ; Width: 0.998mm
G1 X101.6639 Y46.7270 Z0.0400 F721.1 ; Width: 0.998mm
G1 X101.7977 Y46.5670 Z0.0400 F722.6 ; Width: 0.996mm
G1 X101.8989 Y46.4070 Z0.0400 F722.1 ; Width: 0.997mm
G1 X101.9945 Y46.2070 Z0.0400 F720.0 ; Width: 1.000mm
G1 X102.0630 Y45.9910 Z0.0400 F722.1 ; Width: 0.997mm
G1 X102.0830 Y46.0070 Z0.0400 F708.3 ; Width: 1.016mm
G1 X102.0830 Y49.8870 Z0.0400 F600.0 ; Width: 1.200mm
G1 X102.0630 Y49.9030 Z0.0400 F3600.0 ; Width: 0.200mm
G0 Z1.0400 F6000.0 ; Z-hop up
G0 X102.0630 Y43.2870 F6000.0 ; Travel to new path
G0 Z0.0400 F6000.0 ; Z-hop down
G1 X102.0565 Y43.1470 Z0.0400 F3600.0 ; Width: 0.200mm
G1 X102.0237 Y42.9270 Z0.0400 F3077.3 ; Width: 0.234mm
G1 X102.0122 Y42.7470 Z0.0400 F1655.6 ; Width: 0.435mm
G1 X101.9566 Y42.4070 Z0.0400 F1033.0 ; Width: 0.697mm
G1 X101.9096 Y42.2070 Z0.0400 F741.0 ; Width: 0.972mm
G1 X101.8541 Y41.9070 Z0.0400 F720.3 ; Width: 1.000mm
G1 X101.6772 Y41.3270 Z0.0400 F716.9 ; Width: 1.004mm
G1 X101.5089 Y40.9070 Z0.0400 F710.2 ; Width: 1.014mm
G1 X101.2989 Y40.4870 Z0.0400 F706.8 ; Width: 1.019mm
G1 X101.1057 Y40.1670 Z0.0400 F716.8 ; Width: 1.004mm
G1 X100.8230 Y39.7870 Z0.0400 F707.8 ; Width: 1.017mm
G1 X100.7030 Y39.6460 Z0.0400 F722.0 ; Width: 0.997mm
G1 X100.3430 Y39.2914 Z0.0400 F713.2 ; Width: 1.009mm
G1 X100.1230 Y39.1070 Z0.0400 F718.2 ; Width: 1.003mm
G1 X99.9230 Y38.9643 Z0.0400 F716.7 ; Width: 1.005mm
G1 X99.7630 Y38.8622 Z0.0400 F719.7 ; Width: 1.000mm
G1 X99.5030 Y38.7200 Z0.0400 F716.9 ; Width: 1.004mm
G1 X99.1230 Y38.5528 Z0.0400 F717.6 ; Width: 1.003mm
G1 X98.9230 Y38.4870 Z0.0400 F718.6 ; Width: 1.002mm
M118 P0 S"19" ; Sync timer
G1 X98.6630 Y38.4159 Z0.0400 F715.2 ; Width: 1.007mm
G1 X98.3030 Y38.3432 Z0.0400 F716.3 ; Width: 1.005mm
G1 X98.0630 Y38.3135 Z0.0400 F716.7 ; Width: 1.005mm
G1 X97.7630 Y38.2891 Z0.0400 F714.2 ; Width: 1.008mm
G1 X97.2230 Y38.2903 Z0.0400 F708.9 ; Width: 1.016mm
G1 X96.9230 Y38.3156 Z0.0400 F715.6 ; Width: 1.006mm
G1 X96.6630 Y38.3497 Z0.0400 F716.5 ; Width: 1.005mm
G1 X96.3830 Y38.4060 Z0.0400 F716.4 ; Width: 1.005mm
G1 X96.0630 Y38.4930 Z0.0400 F715.3 ; Width: 1.007mm
G1 X95.8230 Y38.5755 Z0.0400 F719.5 ; Width: 1.001mm
G1 X95.5630 Y38.6904 Z0.0400 F715.4 ; Width: 1.006mm
G1 X95.3830 Y38.7822 Z0.0400 F720.2 ; Width: 1.000mm
G1 X95.0830 Y38.9582 Z0.0400 F714.1 ; Width: 1.008mm
G1 X94.9030 Y39.0823 Z0.0400 F720.7 ; Width: 0.999mm
G1 X94.6430 Y39.2945 Z0.0400 F711.8 ; Width: 1.011mm
G1 X94.3830 Y39.5457 Z0.0400 F718.6 ; Width: 1.002mm
G1 X94.3630 Y39.5285 Z0.0400 F711.9 ; Width: 1.011mm
G1 X94.3100 Y39.4070 Z0.0400 F718.9 ; Width: 1.002mm
G1 X94.2442 Y39.2870 Z0.0400 F721.1 ; Width: 0.998mm
G1 X94.1319 Y39.1270 Z0.0400 F719.0 ; Width: 1.001mm
G1 X93.9430 Y38.9261 Z0.0400 F723.1 ; Width: 0.996mm
G1 X93.7757 Y38.7870 Z0.0400 F722.0 ; Width: 0.997mm
G1 X93.5830 Y38.6700 Z0.0400 F722.8 ; Width: 0.996mm
G1 X93.3630 Y38.5793 Z0.0400 F723.3 ; Width: 0.995mm
G1 X93.1430 Y38.5263 Z0.0400 F722.5 ; Width: 0.997mm
G1 X92.9230 Y38.5071 Z0.0400 F720.9 ; Width: 0.999mm
G1 X91.1230 Y38.5070 Z0.0400 F600.0 ; Width: 1.200mm
G1 X90.9430 Y38.5178 Z0.0400 F721.0 ; Width: 0.999mm
G1 X90.7230 Y38.5613 Z0.0400 F721.5 ; Width: 0.998mm
G1 X90.5230 Y38.6322 Z0.0400 F722.5 ; Width: 0.997mm
G1 X90.3410 Y38.7270 Z0.0400 F719.2 ; Width: 1.001mm
G1 X90.1630 Y38.8545 Z0.0400 F722.8 ; Width: 0.996mm
G1 X90.1430 Y38.8545 Z0.0400 F714.6 ; Width: 1.008mm
G1 X89.9430 Y38.7138 Z0.0400 F723.4 ; Width: 0.995mm
G1 X89.7830 Y38.6322 Z0.0400 F719.1 ; Width: 1.001mm
G1 X89.6030 Y38.5670 Z0.0400 F722.1 ; Width: 0.997mm
G1 X89.4230 Y38.5263 Z0.0400 F719.2 ; Width: 1.001mm
G1 X89.2030 Y38.5071 Z0.0400 F722.6 ; Width: 0.996mm
G1 X88.0030 Y38.5103 Z0.0400 F633.6 ; Width: 1.136mm
G1 X87.7630 Y38.5460 Z0.0400 F722.3 ; Width: 0.997mm
G1 X87.5430 Y38.6155 Z0.0400 F722.1 ; Width: 0.997mm
G1 X87.4290 Y38.6670 Z0.0400 F720.1 ; Width: 1.000mm
G1 X87.3230 Y38.7258 Z0.0400 F715.9 ; Width: 1.006mm
G1 X87.2230 Y38.7923 Z0.0400 F720.0 ; Width: 1.000mm
G1 X87.1230 Y38.8714 Z0.0400 F720.8 ; Width: 0.999mm
G1 X87.1030 Y38.8714 Z0.0400 F713.9 ; Width: 1.009mm
G1 X86.9830 Y38.7780 Z0.0400 F721.3 ; Width: 0.998mm
G1 X86.8630 Y38.7022 Z0.0400 F719.5 ; Width: 1.001mm
G1 X86.6630 Y38.6076 Z0.0400 F721.5 ; Width: 0.998mm
G1 X86.4430 Y38.5415 Z0.0400 F721.6 ; Width: 0.998mm
G1 X86.2030 Y38.5091 Z0.0400 F723.5 ; Width: 0.995mm
G1 X84.3630 Y38.5070 Z0.0400 F600.0 ; Width: 1.200mm
G1 X84.2230 Y38.5135 Z0.0400 F721.2 ; Width: 0.998mm
G1 X84.0430 Y38.5415 Z0.0400 F718.5 ; Width: 1.002mm
G1 X83.8630 Y38.5928 Z0.0400 F722.1 ; Width: 0.997mm
G1 X83.6830 Y38.6700 Z0.0400 F719.8 ; Width: 1.000mm
G1 X83.5230 Y38.7643 Z0.0400 F721.8 ; Width: 0.998mm
G1 X83.5030 Y38.7643 Z0.0400 F715.5 ; Width: 1.006mm
G1 X83.3430 Y38.6700 Z0.0400 F721.7 ; Width: 0.998mm
G1 X83.1630 Y38.5928 Z0.0400 F720.6 ; Width: 0.999mm
G1 X82.9830 Y38.5415 Z0.0400 F721.5 ; Width: 0.998mm
G1 X82.8030 Y38.5135 Z0.0400 F721.4 ; Width: 0.998mm
G1 X82.6630 Y38.5070 Z0.0400 F721.2 ; Width: 0.998mm
G1 X80.6030 Y38.5082 Z0.0400 F600.0 ; Width: 1.200mm
G1 X80.4430 Y38.5232 Z0.0400 F721.4 ; Width: 0.998mm
G1 X80.3030 Y38.5508 Z0.0400 F719.7 ; Width: 1.000mm
G1 X80.1630 Y38.5928 Z0.0400 F721.0 ; Width: 0.999mm
G1 X80.0230 Y38.6504 Z0.0400 F720.2 ; Width: 1.000mm
G1 X79.8830 Y38.7258 Z0.0400 F719.8 ; Width: 1.000mm
G1 X79.7630 Y38.8070 Z0.0400 F721.1 ; Width: 0.998mm
G1 X79.6432 Y38.9070 Z0.0400 F720.1 ; Width: 1.000mm
G1 X79.5230 Y39.0272 Z0.0400 F720.2 ; Width: 1.000mm
G1 X79.5030 Y39.0272 Z0.0400 F714.7 ; Width: 1.007mm
G1 X79.3830 Y38.9090 Z0.0400 F720.2 ; Width: 1.000mm
G1 X79.2830 Y38.8270 Z0.0400 F721.0 ; Width: 0.999mm
G1 X79.0830 Y38.7004 Z0.0400 F723.3 ; Width: 0.995mm
G1 X78.8430 Y38.5928 Z0.0400 F723.5 ; Width: 0.995mm
G1 X78.7230 Y38.5559 Z0.0400 F720.9 ; Width: 0.999mm
G1 X78.5830 Y38.5263 Z0.0400 F719.7 ; Width: 1.000mm
G1 X78.3630 Y38.5071 Z0.0400 F722.6 ; Width: 0.996mm
M118 P0 S"20" ; Sync timer
G1 X76.3030 Y38.5082 Z0.0400 F600.0 ; Width: 1.200mm
G1 X76.1230 Y38.5263 Z0.0400 F719.3 ; Width: 1.001mm
G1 X75.9430 Y38.5670 Z0.0400 F721.9 ; Width: 0.997mm
G1 X75.7630 Y38.6322 Z0.0400 F722.1 ; Width: 0.997mm
G1 X75.5830 Y38.7222 Z0.0400 F720.6 ; Width: 0.999mm
G1 X75.4430 Y38.8123 Z0.0400 F720.3 ; Width: 1.000mm
G1 X75.3032 Y38.9270 Z0.0400 F721.5 ; Width: 0.998mm
G1 X75.1674 Y39.0670 Z0.0400 F717.0 ; Width: 1.004mm
G1 X75.0630 Y39.2030 Z0.0400 F721.7 ; Width: 0.998mm
G1 X75.0430 Y39.1870 Z0.0400 F710.4 ; Width: 1.014mm
G1 X75.0430 Y33.0870 Z0.0400 F600.0 ; Width: 1.200mm
G1 X75.0630 Y33.0670 Z0.0400 F600.0 ; Width: 1.200mm
M118 P0 S"21" ; Sync timer
G1 X102.0630 Y33.0670 Z0.0400 F600.0 ; Width: 1.200mm
G1 X102.0830 Y33.0870 Z0.0400 F600.0 ; Width: 1.200mm
M118 P0 S"22" ; Sync timer
G1 X102.0830 Y43.2670 Z0.0400 F666.2 ; Width: 1.081mm
G1 X102.0630 Y43.2870 Z0.0400 F3600.0 ; Width: 0.200mm
G0 Z1.0400 F6000.0 ; Z-hop up
G0 X101.0630 Y38.5940 F6000.0 ; Travel to new path
G0 Z0.0400 F6000.0 ; Z-hop down
G1 X100.7430 Y38.3222 Z0.0400 F3429.7 ; Width: 0.210mm
G1 X100.3480 Y38.0470 Z0.0400 F1091.1 ; Width: 0.660mm
G1 X99.9630 Y37.8319 Z0.0400 F718.0 ; Width: 1.003mm
G1 X99.5430 Y37.6424 Z0.0400 F713.6 ; Width: 1.009mm
G1 X99.2030 Y37.5270 Z0.0400 F720.1 ; Width: 1.000mm
G1 X98.7830 Y37.4175 Z0.0400 F720.2 ; Width: 1.000mm
G1 X98.4030 Y37.3476 Z0.0400 F717.5 ; Width: 1.004mm
G1 X98.1630 Y37.3185 Z0.0400 F716.5 ; Width: 1.005mm
G1 X97.7830 Y37.2890 Z0.0400 F714.6 ; Width: 1.007mm
G1 X97.2430 Y37.2883 Z0.0400 F706.3 ; Width: 1.019mm
G1 X96.8430 Y37.3185 Z0.0400 F717.7 ; Width: 1.003mm
G1 X96.5030 Y37.3625 Z0.0400 F716.2 ; Width: 1.005mm
G1 X96.1030 Y37.4451 Z0.0400 F716.1 ; Width: 1.005mm
G1 X95.7430 Y37.5453 Z0.0400 F714.6 ; Width: 1.008mm
G1 X95.4030 Y37.6671 Z0.0400 F719.3 ; Width: 1.001mm
G1 X95.1430 Y37.7828 Z0.0400 F714.3 ; Width: 1.008mm
G1 X94.9630 Y37.8724 Z0.0400 F719.5 ; Width: 1.001mm
G1 X94.5430 Y38.1165 Z0.0400 F713.8 ; Width: 1.009mm
G1 X94.3630 Y37.9776 Z0.0400 F717.7 ; Width: 1.003mm
G1 X94.1830 Y37.8595 Z0.0400 F719.5 ; Width: 1.001mm
G1 X94.0030 Y37.7620 Z0.0400 F720.6 ; Width: 0.999mm
G1 X93.8030 Y37.6746 Z0.0400 F717.1 ; Width: 1.004mm
G1 X93.6030 Y37.6070 Z0.0400 F721.3 ; Width: 0.998mm
G1 X93.4030 Y37.5575 Z0.0400 F717.5 ; Width: 1.003mm
G1 X93.2030 Y37.5251 Z0.0400 F721.5 ; Width: 0.998mm
G1 X92.9830 Y37.5083 Z0.0400 F718.0 ; Width: 1.003mm
G1 X90.9630 Y37.5121 Z0.0400 F600.0 ; Width: 1.200mm
G1 X90.7630 Y37.5331 Z0.0400 F721.1 ; Width: 0.998mm
G1 X90.5630 Y37.5705 Z0.0400 F716.6 ; Width: 1.005mm
G1 X90.3630 Y37.6253 Z0.0400 F721.5 ; Width: 0.998mm
G1 X90.1630 Y37.6987 Z0.0400 F716.8 ; Width: 1.004mm
G1 X90.1430 Y37.6987 Z0.0400 F717.0 ; Width: 1.004mm
G1 X89.9630 Y37.6318 Z0.0400 F717.1 ; Width: 1.004mm
G1 X89.7630 Y37.5752 Z0.0400 F721.5 ; Width: 0.998mm
G1 X89.5830 Y37.5392 Z0.0400 F719.4 ; Width: 1.001mm
G1 X89.4030 Y37.5167 Z0.0400 F719.4 ; Width: 1.001mm
G1 X89.2030 Y37.5071 Z0.0400 F719.8 ; Width: 1.000mm
G1 X88.0230 Y37.5083 Z0.0400 F620.4 ; Width: 1.161mm
G1 X87.8030 Y37.5251 Z0.0400 F721.6 ; Width: 0.998mm
G1 X87.5830 Y37.5617 Z0.0400 F717.4 ; Width: 1.004mm
G1 X87.3830 Y37.6129 Z0.0400 F720.9 ; Width: 0.999mm
G1 X87.1230 Y37.7071 Z0.0400 F721.1 ; Width: 0.998mm
G1 X87.1030 Y37.7071 Z0.0400 F716.4 ; Width: 1.005mm
G1 X86.8830 Y37.6253 Z0.0400 F721.8 ; Width: 0.998mm
G1 X86.6630 Y37.5660 Z0.0400 F718.7 ; Width: 1.002mm
G1 X86.4430 Y37.5276 Z0.0400 F719.4 ; Width: 1.001mm
G1 X86.2030 Y37.5083 Z0.0400 F721.1 ; Width: 0.998mm
M118 P0 S"23" ; Sync timer
G1 X84.2230 Y37.5109 Z0.0400 F600.0 ; Width: 1.200mm
G1 X84.0430 Y37.5276 Z0.0400 F721.2 ; Width: 0.998mm
G1 X83.8830 Y37.5535 Z0.0400 F717.4 ; Width: 1.004mm
G1 X83.7030 Y37.5957 Z0.0400 F720.9 ; Width: 0.999mm
G1 X83.5230 Y37.6523 Z0.0400 F719.6 ; Width: 1.001mm
G1 X83.5030 Y37.6523 Z0.0400 F717.5 ; Width: 1.003mm
G1 X83.3230 Y37.5957 Z0.0400 F719.6 ; Width: 1.001mm
G1 X83.1430 Y37.5535 Z0.0400 F720.9 ; Width: 0.999mm
G1 X82.9630 Y37.5251 Z0.0400 F717.7 ; Width: 1.003mm
G1 X82.7830 Y37.5099 Z0.0400 F721.1 ; Width: 0.999mm
G1 X80.6030 Y37.5077 Z0.0400 F600.0 ; Width: 1.200mm
G1 X80.3230 Y37.5302 Z0.0400 F720.7 ; Width: 0.999mm
G1 X80.0430 Y37.5851 Z0.0400 F720.0 ; Width: 1.000mm
G1 X79.7630 Y37.6746 Z0.0400 F721.9 ; Width: 0.997mm
G1 X79.5030 Y37.7919 Z0.0400 F722.5 ; Width: 0.997mm
G1 X79.2830 Y37.6905 Z0.0400 F714.3 ; Width: 1.008mm
G1 X79.0430 Y37.6070 Z0.0400 F722.3 ; Width: 0.997mm
G1 X78.8030 Y37.5497 Z0.0400 F721.6 ; Width: 0.998mm
G1 X78.5430 Y37.5150 Z0.0400 F721.4 ; Width: 0.998mm
G1 X78.3430 Y37.5070 Z0.0400 F720.5 ; Width: 0.999mm
G1 X76.3430 Y37.5071 Z0.0400 F693.3 ; Width: 1.038mm
G1 X76.0630 Y37.5251 Z0.0400 F722.1 ; Width: 0.997mm
G1 X76.0430 Y37.5070 Z0.0400 F711.0 ; Width: 1.013mm
G1 X76.0430 Y34.0870 Z0.0400 F600.0 ; Width: 1.200mm
G1 X76.0630 Y34.0670 Z0.0400 F600.0 ; Width: 1.200mm
M118 P0 S"24" ; Sync timer
G1 X101.0630 Y34.0670 Z0.0400 F600.0 ; Width: 1.200mm
G1 X101.0830 Y34.0870 Z0.0400 F600.0 ; Width: 1.200mm
M118 P0 S"25" ; Sync timer
G1 X101.0830 Y38.5870 Z0.0400 F661.4 ; Width: 1.089mm
G1 X101.0630 Y38.5940 Z0.0400 F3600.0 ; Width: 0.200mm
G0 Z1.0400 F6000.0 ; Z-hop up
G0 X94.6030 Y36.9339 F6000.0 ; Travel to new path
G0 Z0.0400 F6000.0 ; Z-hop down
G1 X94.5830 Y36.9366 Z0.0400 F3600.0 ; Width: 0.200mm
G1 X94.3830 Y36.8353 Z0.0400 F3600.0 ; Width: 0.200mm
G1 X94.1630 Y36.7417 Z0.0400 F1996.6 ; Width: 0.361mm
G1 X93.9830 Y36.6778 Z0.0400 F1251.2 ; Width: 0.575mm
G1 X93.8030 Y36.6247 Z0.0400 F942.2 ; Width: 0.764mm
G1 X93.6030 Y36.5777 Z0.0400 F750.4 ; Width: 0.960mm
G1 X93.4030 Y36.5429 Z0.0400 F718.4 ; Width: 1.002mm
G1 X93.2030 Y36.5199 Z0.0400 F720.9 ; Width: 0.999mm
G1 X92.9830 Y36.5079 Z0.0400 F719.7 ; Width: 1.000mm
G1 X90.9630 Y36.5107 Z0.0400 F600.0 ; Width: 1.200mm
G1 X90.7630 Y36.5256 Z0.0400 F720.7 ; Width: 0.999mm
G1 X90.5630 Y36.5521 Z0.0400 F720.5 ; Width: 0.999mm
G1 X90.3630 Y36.5905 Z0.0400 F717.0 ; Width: 1.004mm
G1 X90.1630 Y36.6412 Z0.0400 F719.5 ; Width: 1.001mm
G1 X89.7630 Y36.5554 Z0.0400 F722.0 ; Width: 0.997mm
G1 X89.4030 Y36.5139 Z0.0400 F721.2 ; Width: 0.998mm
G1 X89.2030 Y36.5071 Z0.0400 F718.9 ; Width: 1.002mm
G1 X88.0230 Y36.5079 Z0.0400 F620.3 ; Width: 1.161mm
G1 X87.8030 Y36.5199 Z0.0400 F719.7 ; Width: 1.000mm
G1 X87.5830 Y36.5458 Z0.0400 F721.2 ; Width: 0.998mm
G1 X87.3830 Y36.5819 Z0.0400 F718.0 ; Width: 1.003mm
G1 X87.1030 Y36.6470 Z0.0400 F715.4 ; Width: 1.006mm
G1 X86.8830 Y36.5905 Z0.0400 F717.8 ; Width: 1.003mm
G1 X86.6630 Y36.5489 Z0.0400 F718.3 ; Width: 1.002mm
G1 X86.4430 Y36.5217 Z0.0400 F721.2 ; Width: 0.998mm
G1 X86.2030 Y36.5079 Z0.0400 F719.5 ; Width: 1.001mm
G1 X84.2230 Y36.5098 Z0.0400 F600.0 ; Width: 1.200mm
G1 X83.8830 Y36.5401 Z0.0400 F719.6 ; Width: 1.001mm
G1 X83.5030 Y36.6093 Z0.0400 F722.1 ; Width: 0.997mm
G1 X83.1430 Y36.5401 Z0.0400 F723.4 ; Width: 0.995mm
G1 X82.7830 Y36.5091 Z0.0400 F719.6 ; Width: 1.001mm
G1 X80.6030 Y36.5075 Z0.0400 F600.0 ; Width: 1.200mm
G1 X80.3230 Y36.5236 Z0.0400 F718.6 ; Width: 1.002mm
G1 X80.0430 Y36.5624 Z0.0400 F722.1 ; Width: 0.997mm
G1 X79.7630 Y36.6247 Z0.0400 F719.0 ; Width: 1.001mm
G1 X79.5030 Y36.7048 Z0.0400 F714.6 ; Width: 1.008mm
G1 X79.2830 Y36.6356 Z0.0400 F720.0 ; Width: 1.000mm
G1 X79.0630 Y36.5819 Z0.0400 F715.2 ; Width: 1.007mm
G1 X78.8430 Y36.5429 Z0.0400 F721.0 ; Width: 0.999mm
G1 X78.6230 Y36.5182 Z0.0400 F718.1 ; Width: 1.003mm
G1 X78.3630 Y36.5071 Z0.0400 F717.4 ; Width: 1.004mm
G1 X77.0630 Y36.5070 Z0.0400 F609.2 ; Width: 1.182mm
G1 X77.0430 Y36.4870 Z0.0400 F600.0 ; Width: 1.200mm
G1 X77.0430 Y35.0870 Z0.0400 F600.0 ; Width: 1.200mm
G1 X77.0630 Y35.0670 Z0.0400 F600.0 ; Width: 1.200mm
M118 P0 S"26" ; Sync timer
G1 X100.0630 Y35.0670 Z0.0400 F600.0 ; Width: 1.200mm
G1 X100.0830 Y35.0870 Z0.0400 F600.0 ; Width: 1.200mm
G1 X100.0830 Y36.7670 Z0.0400 F600.0 ; Width: 1.200mm
G1 X100.0630 Y36.7770 Z0.0400 F706.5 ; Width: 1.019mm
G1 X99.8230 Y36.6791 Z0.0400 F721.4 ; Width: 0.998mm
G1 X99.4830 Y36.5670 Z0.0400 F713.1 ; Width: 1.010mm
G1 X99.0830 Y36.4597 Z0.0400 F708.1 ; Width: 1.017mm
G1 X98.6830 Y36.3788 Z0.0400 F717.7 ; Width: 1.003mm
G1 X98.3030 Y36.3277 Z0.0400 F721.2 ; Width: 0.998mm
G1 X97.9030 Y36.2939 Z0.0400 F713.2 ; Width: 1.010mm
G1 X97.7030 Y36.2871 Z0.0400 F720.9 ; Width: 0.999mm
G1 X97.2230 Y36.2884 Z0.0400 F702.8 ; Width: 1.024mm
G1 X96.7630 Y36.3217 Z0.0400 F709.7 ; Width: 1.015mm
G1 X96.4630 Y36.3574 Z0.0400 F715.9 ; Width: 1.006mm
G1 X96.2630 Y36.3898 Z0.0400 F720.9 ; Width: 0.999mm
G1 X95.8830 Y36.4693 Z0.0400 F708.7 ; Width: 1.016mm
G1 X95.5030 Y36.5729 Z0.0400 F712.2 ; Width: 1.011mm
G1 X95.1830 Y36.6791 Z0.0400 F898.3 ; Width: 0.801mm
G1 X94.9830 Y36.7592 Z0.0400 F1369.2 ; Width: 0.526mm
G1 X94.6030 Y36.9339 Z0.0400 F3443.1 ; Width: 0.209mm
G0 Z1.0400 F6000.0 ; Z-hop up
G0 X92.3830 Y54.7470 F6000.0 ; Travel to new path
G0 Z0.0400 F6000.0 ; Z-hop down
G1 X90.6430 Y54.7470 Z0.0400 F827.6 ; Width: 0.870mm
G1 X90.6230 Y54.7270 Z0.0400 F666.4 ; Width: 1.080mm
G1 X90.6166 Y54.6470 Z0.0400 F669.4 ; Width: 1.076mm
G1 X90.5830 Y54.5070 Z0.0400 F666.3 ; Width: 1.081mm
G1 X90.5766 Y54.4270 Z0.0400 F669.4 ; Width: 1.076mm
G1 X90.5430 Y54.2470 Z0.0400 F667.3 ; Width: 1.079mm
G1 X90.5366 Y54.1470 Z0.0400 F668.2 ; Width: 1.077mm
G1 X90.5030 Y54.0070 Z0.0400 F667.3 ; Width: 1.079mm
G1 X90.4630 Y53.7670 Z0.0400 F1800.0 ; Width: 0.400mm
G1 X90.4566 Y53.6870 Z0.0400 F1800.0 ; Width: 0.400mm
G1 X90.4230 Y53.5270 Z0.0400 F1800.0 ; Width: 0.400mm
G1 X90.4166 Y53.4270 Z0.0400 F1800.0 ; Width: 0.400mm
G1 X90.3630 Y53.2070 Z0.0400 F1800.0 ; Width: 0.400mm
G1 X90.3594 Y53.1070 Z0.0400 F741.6 ; Width: 0.971mm
G1 X90.3366 Y52.9470 Z0.0400 F829.5 ; Width: 0.868mm
G1 X90.3030 Y52.7870 Z0.0400 F953.6 ; Width: 0.755mm
G1 X90.2966 Y52.7070 Z0.0400 F1062.5 ; Width: 0.678mm
G1 X90.2430 Y52.5070 Z0.0400 F1202.8 ; Width: 0.599mm
G1 X90.2394 Y52.4270 Z0.0400 F1356.5 ; Width: 0.531mm
G1 X90.2166 Y52.2670 Z0.0400 F1516.3 ; Width: 0.475mm
G1 X90.1830 Y52.1070 Z0.0400 F1669.5 ; Width: 0.431mm
G1 X90.1529 Y51.9070 Z0.0400 F1789.7 ; Width: 0.402mm
G1 X90.1230 Y51.8070 Z0.0400 F1703.6 ; Width: 0.423mm
G1 X90.1166 Y51.6870 Z0.0400 F1738.9 ; Width: 0.414mm
G1 X90.0430 Y51.3070 Z0.0400 F1778.2 ; Width: 0.405mm
G1 X90.0366 Y51.2070 Z0.0400 F1752.8 ; Width: 0.411mm
G1 X90.0030 Y51.0670 Z0.0400 F1757.0 ; Width: 0.410mm
G1 X89.9994 Y50.9870 Z0.0400 F1706.9 ; Width: 0.422mm
G1 X89.9630 Y50.8070 Z0.0400 F1576.8 ; Width: 0.457mm
G1 X89.9566 Y50.7270 Z0.0400 F1738.9 ; Width: 0.414mm
G1 X89.9230 Y50.6070 Z0.0400 F1749.2 ; Width: 0.412mm
G1 X89.9166 Y50.5070 Z0.0400 F1689.5 ; Width: 0.426mm
G1 X89.8830 Y50.3670 Z0.0400 F1729.4 ; Width: 0.416mm
G1 X89.8766 Y50.2670 Z0.0400 F1697.0 ; Width: 0.424mm
G1 X89.8230 Y49.9870 Z0.0400 F1713.7 ; Width: 0.420mm
G1 X89.7966 Y49.7870 Z0.0400 F1725.3 ; Width: 0.417mm
G1 X89.6830 Y49.1670 Z0.0400 F1716.6 ; Width: 0.419mm
G1 X89.6766 Y49.0670 Z0.0400 F1686.4 ; Width: 0.427mm
G1 X89.5630 Y48.4670 Z0.0400 F1647.0 ; Width: 0.437mm
G1 X89.5529 Y48.3670 Z0.0400 F1657.7 ; Width: 0.434mm
G1 X89.5230 Y48.2470 Z0.0400 F1611.3 ; Width: 0.447mm
G1 X89.5166 Y48.1470 Z0.0400 F1623.3 ; Width: 0.444mm
G1 X89.4830 Y48.0070 Z0.0400 F1664.5 ; Width: 0.433mm
G1 X89.4794 Y47.9270 Z0.0400 F1647.5 ; Width: 0.437mm
G1 X89.4430 Y47.7470 Z0.0400 F1612.8 ; Width: 0.446mm
G1 X89.4366 Y47.6670 Z0.0400 F1645.9 ; Width: 0.437mm
G1 X89.4030 Y47.5470 Z0.0400 F1582.1 ; Width: 0.455mm
G1 X89.3966 Y47.4670 Z0.0400 F1579.4 ; Width: 0.456mm
G1 X89.3630 Y47.3070 Z0.0400 F1647.4 ; Width: 0.437mm
G1 X89.3566 Y47.2070 Z0.0400 F1591.4 ; Width: 0.452mm
G1 X89.3230 Y47.0470 Z0.0400 F1598.6 ; Width: 0.450mm
G1 X89.3166 Y46.9470 Z0.0400 F1594.4 ; Width: 0.452mm
G1 X89.2830 Y46.8270 Z0.0400 F1647.4 ; Width: 0.437mm
G1 X89.2766 Y46.7270 Z0.0400 F1604.6 ; Width: 0.449mm
G1 X89.2430 Y46.5670 Z0.0400 F1647.4 ; Width: 0.437mm
G1 X89.2329 Y46.4670 Z0.0400 F1607.7 ; Width: 0.448mm
G1 X89.2030 Y46.3470 Z0.0400 F1559.8 ; Width: 0.462mm
G1 X89.1929 Y46.2270 Z0.0400 F1603.3 ; Width: 0.449mm
G1 X89.1630 Y46.1312 Z0.0400 F1631.9 ; Width: 0.441mm
G1 X89.1101 Y46.0270 Z0.0400 F1522.3 ; Width: 0.473mm
G1 X89.0630 Y45.9621 Z0.0400 F1396.9 ; Width: 0.515mm
G1 X88.9879 Y45.8870 Z0.0400 F1300.1 ; Width: 0.554mm
G1 X88.9230 Y45.8399 Z0.0400 F1173.1 ; Width: 0.614mm
G1 X88.8430 Y45.8005 Z0.0400 F1800.0 ; Width: 0.400mm
G1 X88.7630 Y45.7771 Z0.0400 F1800.0 ; Width: 0.400mm
G1 X88.6630 Y45.7670 Z0.0400 F1800.0 ; Width: 0.400mm
G1 X88.5630 Y45.7706 Z0.0400 F1800.0 ; Width: 0.400mm
G1 X88.4830 Y45.7870 Z0.0400 F1800.0 ; Width: 0.400mm
G1 X88.4030 Y45.8180 Z0.0400 F1800.0 ; Width: 0.400mm
G1 X88.3230 Y45.8670 Z0.0400 F1039.5 ; Width: 0.693mm
G1 X88.2230 Y45.9601 Z0.0400 F1178.6 ; Width: 0.611mm
G1 X88.1688 Y46.0270 Z0.0400 F1346.0 ; Width: 0.535mm
G1 X88.1247 Y46.1070 Z0.0400 F1463.9 ; Width: 0.492mm
G1 X88.0931 Y46.2070 Z0.0400 F1529.7 ; Width: 0.471mm
G1 X88.0830 Y46.3070 Z0.0400 F1531.0 ; Width: 0.470mm
G1 X88.0494 Y46.4670 Z0.0400 F1563.0 ; Width: 0.461mm
G1 X88.0430 Y46.5470 Z0.0400 F1531.7 ; Width: 0.470mm
G1 X88.0176 Y46.6270 Z0.0400 F1573.1 ; Width: 0.458mm
G1 X87.9894 Y46.7670 Z0.0400 F1566.7 ; Width: 0.460mm
G1 X87.9666 Y46.9270 Z0.0400 F1600.4 ; Width: 0.450mm
G1 X87.9630 Y47.0070 Z0.0400 F1557.6 ; Width: 0.462mm
G1 X87.8694 Y47.4470 Z0.0400 F1574.9 ; Width: 0.457mm
G1 X87.8430 Y47.7070 Z0.0400 F1613.8 ; Width: 0.446mm
G1 X87.8176 Y47.7870 Z0.0400 F1596.7 ; Width: 0.451mm
G1 X87.7931 Y47.9070 Z0.0400 F1645.5 ; Width: 0.438mm
G1 X87.7830 Y48.0070 Z0.0400 F1607.7 ; Width: 0.448mm
G1 X87.7494 Y48.1470 Z0.0400 F1650.5 ; Width: 0.436mm
G1 X87.7430 Y48.2470 Z0.0400 F1620.8 ; Width: 0.444mm
G1 X87.6694 Y48.5870 Z0.0400 F1650.4 ; Width: 0.436mm
G1 X87.6630 Y48.6870 Z0.0400 F1683.4 ; Width: 0.428mm
G1 X87.6266 Y48.8670 Z0.0400 F1677.1 ; Width: 0.429mm
G1 X87.6230 Y48.9470 Z0.0400 F1642.0 ; Width: 0.438mm
G1 X87.5931 Y49.0670 Z0.0400 F1654.6 ; Width: 0.435mm
G1 X87.5494 Y49.3070 Z0.0400 F1664.9 ; Width: 0.432mm
G1 X87.5430 Y49.4070 Z0.0400 F1702.1 ; Width: 0.423mm
G1 X87.5094 Y49.5470 Z0.0400 F1686.4 ; Width: 0.427mm
G1 X87.5030 Y49.6470 Z0.0400 F1685.8 ; Width: 0.427mm
G1 X87.4731 Y49.7670 Z0.0400 F1677.3 ; Width: 0.429mm
G1 X87.4630 Y49.8670 Z0.0400 F1709.3 ; Width: 0.421mm
G1 X87.4294 Y50.0270 Z0.0400 F1686.8 ; Width: 0.427mm
G1 X87.4230 Y50.1470 Z0.0400 F1673.4 ; Width: 0.430mm
G1 X87.3931 Y50.2470 Z0.0400 F1679.2 ; Width: 0.429mm
G1 X87.3830 Y50.3670 Z0.0400 F1711.3 ; Width: 0.421mm
G1 X87.3466 Y50.5270 Z0.0400 F1689.9 ; Width: 0.426mm
G1 X87.3430 Y50.6070 Z0.0400 F1713.0 ; Width: 0.420mm
G1 X87.3094 Y50.7470 Z0.0400 F1671.7 ; Width: 0.431mm
G1 X87.3030 Y50.8670 Z0.0400 F1707.4 ; Width: 0.422mm
G1 X87.2731 Y50.9670 Z0.0400 F1682.3 ; Width: 0.428mm
G1 X87.2630 Y51.0670 Z0.0400 F1729.8 ; Width: 0.416mm
G1 X87.2294 Y51.2070 Z0.0400 F1710.4 ; Width: 0.421mm
G1 X87.2230 Y51.3070 Z0.0400 F1744.6 ; Width: 0.413mm
G1 X87.1866 Y51.4670 Z0.0400 F1699.3 ; Width: 0.424mm
G1 X87.1830 Y51.5670 Z0.0400 F1750.0 ; Width: 0.411mm
G1 X87.1531 Y51.6670 Z0.0400 F1697.2 ; Width: 0.424mm
G1 X87.1430 Y51.7670 Z0.0400 F1729.8 ; Width: 0.416mm
G1 X87.1094 Y51.9070 Z0.0400 F1784.4 ; Width: 0.403mm
G1 X87.1030 Y52.0070 Z0.0400 F1722.7 ; Width: 0.418mm
G1 X87.0694 Y52.1470 Z0.0400 F1720.3 ; Width: 0.419mm
G1 X87.0630 Y52.2470 Z0.0400 F1649.2 ; Width: 0.437mm
G1 X87.0294 Y52.3670 Z0.0400 F1552.7 ; Width: 0.464mm
G1 X87.0230 Y52.4670 Z0.0400 F1451.4 ; Width: 0.496mm
G1 X86.9094 Y53.0870 Z0.0400 F1045.6 ; Width: 0.689mm
G1 X86.9030 Y53.1870 Z0.0400 F765.2 ; Width: 0.941mm
G1 X86.8694 Y53.3470 Z0.0400 F690.6 ; Width: 1.043mm
G1 X86.8630 Y53.4270 Z0.0400 F656.4 ; Width: 1.097mm
G1 X86.8294 Y53.5670 Z0.0400 F654.4 ; Width: 1.100mm
G1 X86.8230 Y53.6670 Z0.0400 F663.0 ; Width: 1.086mm
G1 X86.7866 Y53.8270 Z0.0400 F663.7 ; Width: 1.085mm
G1 X86.7830 Y53.9270 Z0.0400 F662.2 ; Width: 1.087mm
G1 X86.7430 Y54.1670 Z0.0400 F664.8 ; Width: 1.083mm
G1 X86.7094 Y54.3070 Z0.0400 F662.3 ; Width: 1.087mm
G1 X86.7030 Y54.4070 Z0.0400 F663.0 ; Width: 1.086mm
G1 X86.6694 Y54.5470 Z0.0400 F663.8 ; Width: 1.085mm
G1 X86.6630 Y54.6470 Z0.0400 F660.1 ; Width: 1.091mm
G1 X86.6430 Y54.7470 Z0.0400 F664.6 ; Width: 1.083mm
M118 P0 S"27" ; Sync timer
G1 X84.9030 Y54.7470 Z0.0400 F600.0 ; Width: 1.200mm
G1 X84.8830 Y54.7270 Z0.0400 F600.0 ; Width: 1.200mm
G1 X84.8830 Y40.6270 Z0.0400 F600.0 ; Width: 1.200mm
G1 X84.9030 Y40.6070 Z0.0400 F600.0 ; Width: 1.200mm
G1 X85.5830 Y40.6070 Z0.0400 F600.0 ; Width: 1.200mm
G1 X85.6030 Y40.6270 Z0.0400 F600.0 ; Width: 1.200mm
M118 P0 S"28" ; Sync timer
G1 X85.6034 Y51.8870 Z0.0400 F600.0 ; Width: 1.200mm
G1 X85.6176 Y51.9870 Z0.0400 F774.8 ; Width: 0.929mm
G1 X85.6540 Y52.0870 Z0.0400 F771.5 ; Width: 0.933mm
G1 X85.7030 Y52.1670 Z0.0400 F772.7 ; Width: 0.932mm
G1 X85.7961 Y52.2670 Z0.0400 F789.2 ; Width: 0.912mm
G1 X85.8718 Y52.3270 Z0.0400 F1800.0 ; Width: 0.400mm
G1 X85.9630 Y52.3735 Z0.0400 F1800.0 ; Width: 0.400mm
G1 X86.0430 Y52.3969 Z0.0400 F1800.0 ; Width: 0.400mm
G1 X86.1430 Y52.4070 Z0.0400 F1800.0 ; Width: 0.400mm
G1 X86.2630 Y52.3969 Z0.0400 F1800.0 ; Width: 0.400mm
G1 X86.3630 Y52.3653 Z0.0400 F1006.7 ; Width: 0.715mm
G1 X86.4630 Y52.3070 Z0.0400 F1166.5 ; Width: 0.617mm
G1 X86.5496 Y52.2270 Z0.0400 F1351.8 ; Width: 0.533mm
G1 X86.6101 Y52.1470 Z0.0400 F1486.6 ; Width: 0.484mm
G1 X86.6495 Y52.0670 Z0.0400 F1630.8 ; Width: 0.442mm
G1 X86.6884 Y51.9470 Z0.0400 F1697.0 ; Width: 0.424mm
G1 X86.7329 Y51.7470 Z0.0400 F1785.3 ; Width: 0.403mm
G1 X86.7430 Y51.6070 Z0.0400 F1735.2 ; Width: 0.415mm
G1 X86.7794 Y51.4470 Z0.0400 F1730.1 ; Width: 0.416mm
G1 X86.7830 Y51.3470 Z0.0400 F1750.0 ; Width: 0.411mm
G1 X86.8166 Y51.2070 Z0.0400 F1697.0 ; Width: 0.424mm
G1 X86.8230 Y51.1070 Z0.0400 F1744.6 ; Width: 0.413mm
G1 X86.8529 Y50.9870 Z0.0400 F1702.4 ; Width: 0.423mm
G1 X86.8630 Y50.8670 Z0.0400 F1726.3 ; Width: 0.417mm
G1 X86.8966 Y50.7070 Z0.0400 F1671.6 ; Width: 0.431mm
G1 X86.9030 Y50.5870 Z0.0400 F1707.4 ; Width: 0.422mm
G1 X86.9366 Y50.4670 Z0.0400 F1686.8 ; Width: 0.427mm
G1 X86.9430 Y50.3870 Z0.0400 F1718.6 ; Width: 0.419mm
G1 X86.9794 Y50.2070 Z0.0400 F1683.9 ; Width: 0.428mm
G1 X86.9830 Y50.1270 Z0.0400 F1715.9 ; Width: 0.420mm
G1 X87.0194 Y49.9470 Z0.0400 F1680.8 ; Width: 0.428mm
G1 X87.0230 Y49.8470 Z0.0400 F1680.5 ; Width: 0.428mm
G1 X87.0566 Y49.7270 Z0.0400 F1671.6 ; Width: 0.431mm
G1 X87.0630 Y49.6470 Z0.0400 F1710.2 ; Width: 0.421mm
G1 X87.0994 Y49.4670 Z0.0400 F1680.8 ; Width: 0.428mm
G1 X87.1030 Y49.3670 Z0.0400 F1680.5 ; Width: 0.428mm
G1 X87.1329 Y49.2670 Z0.0400 F1668.2 ; Width: 0.432mm
G1 X87.1430 Y49.1270 Z0.0400 F1690.4 ; Width: 0.426mm
G1 X87.1729 Y49.0070 Z0.0400 F1654.6 ; Width: 0.435mm
G1 X87.1830 Y48.8870 Z0.0400 F1666.1 ; Width: 0.432mm
G1 X87.2166 Y48.7470 Z0.0400 F1675.4 ; Width: 0.430mm
G1 X87.2230 Y48.6270 Z0.0400 F1624.5 ; Width: 0.443mm
G1 X87.2529 Y48.5270 Z0.0400 F1668.2 ; Width: 0.432mm
G1 X87.2630 Y48.4070 Z0.0400 F1679.7 ; Width: 0.429mm
G1 X87.2966 Y48.2670 Z0.0400 F1555.2 ; Width: 0.463mm
G1 X87.3030 Y48.1670 Z0.0400 F1620.8 ; Width: 0.444mm
G1 X87.3394 Y47.9870 Z0.0400 F1659.2 ; Width: 0.434mm
G1 X87.3430 Y47.9070 Z0.0400 F1614.8 ; Width: 0.446mm
G1 X87.3794 Y47.7470 Z0.0400 F1639.1 ; Width: 0.439mm
G1 X87.3830 Y47.6470 Z0.0400 F1615.8 ; Width: 0.446mm
G1 X87.4129 Y47.5270 Z0.0400 F1562.0 ; Width: 0.461mm
G1 X87.4230 Y47.4070 Z0.0400 F1593.1 ; Width: 0.452mm
G1 X87.4594 Y47.2470 Z0.0400 F1618.9 ; Width: 0.445mm
G1 X87.4630 Y47.1670 Z0.0400 F1520.4 ; Width: 0.474mm
G1 X87.4966 Y47.0270 Z0.0400 F1464.8 ; Width: 0.492mm
G1 X87.5030 Y46.9470 Z0.0400 F1552.9 ; Width: 0.464mm
G1 X87.5394 Y46.7470 Z0.0400 F1591.0 ; Width: 0.453mm
G1 X87.5430 Y46.6670 Z0.0400 F1592.0 ; Width: 0.452mm
G1 X87.5766 Y46.5270 Z0.0400 F1569.2 ; Width: 0.459mm
G1 X87.5830 Y46.4270 Z0.0400 F1555.7 ; Width: 0.463mm
G1 X87.6166 Y46.2870 Z0.0400 F1555.3 ; Width: 0.463mm
G1 X87.6230 Y46.1870 Z0.0400 F1536.9 ; Width: 0.468mm
G1 X87.6566 Y46.0270 Z0.0400 F1551.0 ; Width: 0.464mm
G1 X87.6630 Y45.9470 Z0.0400 F1499.4 ; Width: 0.480mm
G1 X87.7366 Y45.5470 Z0.0400 F1318.1 ; Width: 0.546mm
G1 X87.7430 Y45.4670 Z0.0400 F1086.9 ; Width: 0.662mm
G1 X87.7794 Y45.2670 Z0.0400 F957.9 ; Width: 0.752mm
G1 X87.7830 Y45.1870 Z0.0400 F858.6 ; Width: 0.839mm
G1 X87.8129 Y45.0670 Z0.0400 F793.5 ; Width: 0.907mm
G1 X87.8230 Y44.9670 Z0.0400 F728.2 ; Width: 0.989mm
G1 X87.8566 Y44.8070 Z0.0400 F663.1 ; Width: 1.086mm
G1 X87.8630 Y44.6870 Z0.0400 F661.6 ; Width: 1.088mm
G1 X87.9366 Y44.3070 Z0.0400 F663.0 ; Width: 1.086mm
G1 X87.9430 Y44.2070 Z0.0400 F663.0 ; Width: 1.086mm
G1 X87.9766 Y44.0670 Z0.0400 F663.8 ; Width: 1.085mm
G1 X87.9830 Y43.9670 Z0.0400 F660.1 ; Width: 1.091mm
G1 X88.0566 Y43.5670 Z0.0400 F661.6 ; Width: 1.088mm
G1 X88.0630 Y43.4470 Z0.0400 F664.4 ; Width: 1.084mm
G1 X88.0966 Y43.3070 Z0.0400 F667.3 ; Width: 1.079mm
G1 X88.1030 Y43.2070 Z0.0400 F693.7 ; Width: 1.038mm
G1 X88.1566 Y42.9670 Z0.0400 F734.5 ; Width: 0.980mm
G1 X88.1814 Y42.7870 Z0.0400 F786.7 ; Width: 0.915mm
G1 X88.1830 Y42.6870 Z0.0400 F823.6 ; Width: 0.874mm
G1 X88.2129 Y42.5870 Z0.0400 F845.5 ; Width: 0.852mm
G1 X88.2430 Y42.3870 Z0.0400 F910.1 ; Width: 0.791mm
G1 X88.2766 Y42.2270 Z0.0400 F983.4 ; Width: 0.732mm
G1 X88.3030 Y41.9670 Z0.0400 F1063.7 ; Width: 0.677mm
G1 X88.3284 Y41.8870 Z0.0400 F1112.1 ; Width: 0.647mm
G1 X88.3566 Y41.7470 Z0.0400 F1243.4 ; Width: 0.579mm
G1 X88.3630 Y41.6670 Z0.0400 F1344.1 ; Width: 0.536mm
G1 X88.4194 Y41.3470 Z0.0400 F1519.9 ; Width: 0.474mm
G1 X88.4230 Y41.2470 Z0.0400 F1395.6 ; Width: 0.516mm
G1 X88.4766 Y41.0070 Z0.0400 F1081.4 ; Width: 0.666mm
G1 X88.4830 Y40.9070 Z0.0400 F1800.0 ; Width: 0.400mm
G1 X88.5230 Y40.6670 Z0.0400 F1800.0 ; Width: 0.400mm
G1 X88.5430 Y40.6070 Z0.0400 F666.4 ; Width: 1.080mm
G1 X88.7230 Y40.6070 Z0.0400 F1800.0 ; Width: 0.400mm
G1 X88.7630 Y40.7870 Z0.0400 F663.2 ; Width: 1.086mm
G1 X88.7694 Y40.8870 Z0.0400 F721.5 ; Width: 0.998mm
G1 X88.8430 Y41.2870 Z0.0400 F986.4 ; Width: 0.730mm
G1 X88.8494 Y41.3870 Z0.0400 F1686.4 ; Width: 0.427mm
G1 X88.8830 Y41.5270 Z0.0400 F1564.6 ; Width: 0.460mm
G1 X88.8894 Y41.6270 Z0.0400 F1383.5 ; Width: 0.520mm
G1 X88.9630 Y42.0270 Z0.0400 F1251.6 ; Width: 0.575mm
G1 X88.9694 Y42.1270 Z0.0400 F1081.8 ; Width: 0.666mm
G1 X89.0030 Y42.2470 Z0.0400 F1013.0 ; Width: 0.711mm
G1 X89.0066 Y42.3470 Z0.0400 F984.1 ; Width: 0.732mm
G1 X89.0430 Y42.5070 Z0.0400 F929.6 ; Width: 0.775mm
G1 X89.0494 Y42.6270 Z0.0400 F874.7 ; Width: 0.823mm
G1 X89.0830 Y42.7670 Z0.0400 F836.8 ; Width: 0.860mm
G1 X89.0894 Y42.8870 Z0.0400 F795.0 ; Width: 0.906mm
G1 X89.1230 Y43.0070 Z0.0400 F1800.0 ; Width: 0.400mm
G1 X89.1294 Y43.1270 Z0.0400 F1800.0 ; Width: 0.400mm
G1 X89.1630 Y43.2670 Z0.0400 F1800.0 ; Width: 0.400mm
G1 X89.1666 Y43.3470 Z0.0400 F1800.0 ; Width: 0.400mm
G1 X89.2030 Y43.5270 Z0.0400 F1800.0 ; Width: 0.400mm
G1 X89.2131 Y43.6270 Z0.0400 F1800.0 ; Width: 0.400mm
G1 X89.2430 Y43.7270 Z0.0400 F1800.0 ; Width: 0.400mm
G1 X89.2494 Y43.8670 Z0.0400 F1800.0 ; Width: 0.400mm
G1 X89.2830 Y44.0070 Z0.0400 F1800.0 ; Width: 0.400mm
G1 X89.2866 Y44.0870 Z0.0400 F1800.0 ; Width: 0.400mm
G1 X89.3230 Y44.2470 Z0.0400 F1800.0 ; Width: 0.400mm
G1 X89.3331 Y44.3670 Z0.0400 F1800.0 ; Width: 0.400mm
G1 X89.3630 Y44.4670 Z0.0400 F1800.0 ; Width: 0.400mm
G1 X89.3666 Y44.5870 Z0.0400 F1800.0 ; Width: 0.400mm
G1 X89.4030 Y44.7670 Z0.0400 F1800.0 ; Width: 0.400mm
G1 X89.4094 Y44.8670 Z0.0400 F1800.0 ; Width: 0.400mm
G1 X89.4430 Y44.9870 Z0.0400 F1800.0 ; Width: 0.400mm
G1 X89.4494 Y45.0870 Z0.0400 F751.3 ; Width: 0.958mm
G1 X89.4830 Y45.2270 Z0.0400 F825.1 ; Width: 0.873mm
G1 X89.4894 Y45.3470 Z0.0400 F923.1 ; Width: 0.780mm
G1 X89.5230 Y45.5070 Z0.0400 F1038.9 ; Width: 0.693mm
G1 X89.5331 Y45.6070 Z0.0400 F1167.4 ; Width: 0.617mm
G1 X89.5630 Y45.7270 Z0.0400 F1269.9 ; Width: 0.567mm
G1 X89.5666 Y45.8070 Z0.0400 F1374.5 ; Width: 0.524mm
G1 X89.6030 Y45.9870 Z0.0400 F1492.4 ; Width: 0.482mm
G1 X89.6094 Y46.0870 Z0.0400 F1589.0 ; Width: 0.453mm
G1 X89.6430 Y46.2270 Z0.0400 F1640.3 ; Width: 0.439mm
G1 X89.6830 Y46.4670 Z0.0400 F1612.4 ; Width: 0.447mm
G1 X89.6894 Y46.5670 Z0.0400 F1614.2 ; Width: 0.446mm
G1 X89.7230 Y46.7070 Z0.0400 F1640.1 ; Width: 0.439mm
G1 X89.7294 Y46.8070 Z0.0400 F1604.6 ; Width: 0.449mm
G1 X89.7830 Y47.0470 Z0.0400 F1635.9 ; Width: 0.440mm
G1 X89.8094 Y47.3070 Z0.0400 F1633.8 ; Width: 0.441mm
G1 X89.8731 Y47.6470 Z0.0400 F1622.2 ; Width: 0.444mm
G1 X89.9030 Y47.7670 Z0.0400 F1611.3 ; Width: 0.447mm
G1 X89.9066 Y47.8670 Z0.0400 F1638.6 ; Width: 0.439mm
G1 X89.9294 Y48.0270 Z0.0400 F1639.7 ; Width: 0.439mm
G1 X89.9830 Y48.2670 Z0.0400 F1637.6 ; Width: 0.440mm
G1 X89.9866 Y48.3470 Z0.0400 F1651.1 ; Width: 0.436mm
G1 X90.0230 Y48.5270 Z0.0400 F1625.9 ; Width: 0.443mm
G1 X90.0266 Y48.6070 Z0.0400 F1523.8 ; Width: 0.473mm
G1 X90.0694 Y48.8870 Z0.0400 F1468.5 ; Width: 0.490mm
G1 X90.1030 Y49.0070 Z0.0400 F1686.7 ; Width: 0.427mm
G1 X90.1066 Y49.1070 Z0.0400 F1680.8 ; Width: 0.428mm
G1 X90.1430 Y49.2870 Z0.0400 F1625.9 ; Width: 0.443mm
G1 X90.1494 Y49.3870 Z0.0400 F1459.2 ; Width: 0.493mm
G1 X90.1931 Y49.6470 Z0.0400 F1558.9 ; Width: 0.462mm
G1 X90.2230 Y49.7670 Z0.0400 F1717.6 ; Width: 0.419mm
G1 X90.2266 Y49.8670 Z0.0400 F1677.1 ; Width: 0.429mm
G1 X90.2630 Y50.0470 Z0.0400 F1702.6 ; Width: 0.423mm
G1 X90.2694 Y50.1470 Z0.0400 F1693.6 ; Width: 0.425mm
G1 X90.3030 Y50.2870 Z0.0400 F1744.6 ; Width: 0.413mm
G1 X90.3131 Y50.3870 Z0.0400 F1689.7 ; Width: 0.426mm
G1 X90.3430 Y50.5070 Z0.0400 F1731.4 ; Width: 0.416mm
G1 X90.3494 Y50.6270 Z0.0400 F1709.3 ; Width: 0.421mm
G1 X90.4230 Y51.0270 Z0.0400 F1719.9 ; Width: 0.419mm
G1 X90.4294 Y51.1270 Z0.0400 F1752.8 ; Width: 0.411mm
G1 X90.4630 Y51.2670 Z0.0400 F1757.0 ; Width: 0.410mm
G1 X90.4694 Y51.3870 Z0.0400 F1699.3 ; Width: 0.424mm
G1 X90.5030 Y51.5270 Z0.0400 F1653.7 ; Width: 0.435mm
G1 X90.5094 Y51.6070 Z0.0400 F1765.9 ; Width: 0.408mm
G1 X90.5576 Y51.9070 Z0.0400 F1759.8 ; Width: 0.409mm
G1 X90.6140 Y52.0670 Z0.0400 F1713.0 ; Width: 0.420mm
G1 X90.6488 Y52.1270 Z0.0400 F1606.0 ; Width: 0.448mm
G1 X90.7030 Y52.1939 Z0.0400 F1526.9 ; Width: 0.472mm
G1 X90.7781 Y52.2670 Z0.0400 F1370.7 ; Width: 0.525mm
G1 X90.8430 Y52.3141 Z0.0400 F1226.1 ; Width: 0.587mm
G1 X90.9230 Y52.3535 Z0.0400 F1107.1 ; Width: 0.650mm
G1 X91.0230 Y52.3806 Z0.0400 F1800.0 ; Width: 0.400mm
G1 X91.1030 Y52.3870 Z0.0400 F1800.0 ; Width: 0.400mm
G1 X91.1830 Y52.3834 Z0.0400 F1800.0 ; Width: 0.400mm
G1 X91.2630 Y52.3670 Z0.0400 F1800.0 ; Width: 0.400mm
G1 X91.3430 Y52.3360 Z0.0400 F1800.0 ; Width: 0.400mm
G1 X91.4030 Y52.3012 Z0.0400 F1800.0 ; Width: 0.400mm
G1 X91.4699 Y52.2470 Z0.0400 F975.8 ; Width: 0.738mm
G1 X91.5472 Y52.1670 Z0.0400 F982.4 ; Width: 0.733mm
G1 X91.6016 Y52.0870 Z0.0400 F953.7 ; Width: 0.755mm
G1 X91.6484 Y51.9670 Z0.0400 F930.0 ; Width: 0.774mm
G1 X91.6630 Y51.8470 Z0.0400 F911.1 ; Width: 0.790mm
M118 P0 S"29" ; Sync timer
G1 X91.6626 Y51.0270 Z0.0400 F653.0 ; Width: 1.103mm
G1 X91.6430 Y50.9070 Z0.0400 F600.0 ; Width: 1.200mm
G1 X91.6430 Y40.6270 Z0.0400 F600.0 ; Width: 1.200mm
G1 X91.6630 Y40.6070 Z0.0400 F600.0 ; Width: 1.200mm
G1 X92.3830 Y40.6070 Z0.0400 F600.0 ; Width: 1.200mm
G1 X92.4030 Y40.6270 Z0.0400 F600.0 ; Width: 1.200mm
M118 P0 S"30" ; Sync timer
G1 X92.4030 Y54.7270 Z0.0400 F600.0 ; Width: 1.200mm
G1 X92.3830 Y54.7470 Z0.0400 F3600.0 ; Width: 0.200mm
G0 Z1.0400 F6000.0 ; Z-hop up
G0 X97.6430 Y54.9474 F6000.0 ; Travel to new path
G0 Z0.0400 F6000.0 ; Z-hop down
G1 X97.5230 Y54.9670 Z0.0400 F3600.0 ; Width: 0.200mm
G1 X97.4230 Y54.9670 Z0.0400 F3600.0 ; Width: 0.200mm
G1 X97.1830 Y54.9306 Z0.0400 F2117.6 ; Width: 0.340mm
G1 X97.0630 Y54.9270 Z0.0400 F1383.7 ; Width: 0.520mm
G1 X96.8030 Y54.8687 Z0.0400 F1011.6 ; Width: 0.712mm
G1 X96.6630 Y54.8287 Z0.0400 F786.6 ; Width: 0.915mm
G1 X96.4430 Y54.7470 Z0.0400 F653.6 ; Width: 1.102mm
G1 X96.2630 Y54.6580 Z0.0400 F654.1 ; Width: 1.101mm
G1 X96.0830 Y54.5376 Z0.0400 F657.1 ; Width: 1.096mm
G1 X95.9830 Y54.4590 Z0.0400 F657.9 ; Width: 1.094mm
G1 X95.8510 Y54.3470 Z0.0400 F653.9 ; Width: 1.101mm
G1 X95.6510 Y54.1070 Z0.0400 F663.1 ; Width: 1.086mm
G1 X95.5120 Y53.9070 Z0.0400 F675.9 ; Width: 1.065mm
G1 X95.4416 Y53.7670 Z0.0400 F689.4 ; Width: 1.044mm
G1 X95.3920 Y53.6870 Z0.0400 F697.7 ; Width: 1.032mm
G1 X95.3030 Y53.4870 Z0.0400 F706.2 ; Width: 1.019mm
G1 X95.1830 Y53.1270 Z0.0400 F727.6 ; Width: 0.990mm
G1 X95.1284 Y52.8870 Z0.0400 F747.0 ; Width: 0.964mm
G1 X95.1030 Y52.8070 Z0.0400 F750.8 ; Width: 0.959mm
G1 X95.0630 Y52.5870 Z0.0400 F751.6 ; Width: 0.958mm
G1 X95.0566 Y52.4870 Z0.0400 F758.9 ; Width: 0.949mm
G1 X95.0230 Y52.3470 Z0.0400 F755.4 ; Width: 0.953mm
G1 X95.0194 Y52.2070 Z0.0400 F757.2 ; Width: 0.951mm
G1 X94.9830 Y52.0270 Z0.0400 F753.7 ; Width: 0.955mm
G1 X94.9814 Y51.7670 Z0.0400 F752.8 ; Width: 0.956mm
G1 X94.9630 Y51.6670 Z0.0400 F756.9 ; Width: 0.951mm
G1 X94.9594 Y51.4670 Z0.0400 F738.1 ; Width: 0.975mm
G1 X94.9430 Y51.3870 Z0.0400 F707.7 ; Width: 1.017mm
G1 X94.9430 Y43.8470 Z0.0400 F600.0 ; Width: 1.200mm
G1 X94.9594 Y43.7670 Z0.0400 F728.5 ; Width: 0.988mm
G1 X94.9630 Y43.5870 Z0.0400 F747.6 ; Width: 0.963mm
G1 X94.9814 Y43.4870 Z0.0400 F753.9 ; Width: 0.955mm
G1 X94.9830 Y43.2670 Z0.0400 F746.5 ; Width: 0.964mm
G1 X95.0166 Y43.1270 Z0.0400 F748.5 ; Width: 0.962mm
G1 X95.0230 Y43.0070 Z0.0400 F756.2 ; Width: 0.952mm
G1 X95.1030 Y42.5670 Z0.0400 F751.8 ; Width: 0.958mm
G1 X95.1813 Y42.2670 Z0.0400 F745.8 ; Width: 0.965mm
G1 X95.3030 Y41.9070 Z0.0400 F730.7 ; Width: 0.985mm
G1 X95.3720 Y41.7470 Z0.0400 F712.9 ; Width: 1.010mm
M118 P0 S"31" ; Sync timer
G1 X95.4920 Y41.5070 Z0.0400 F698.2 ; Width: 1.031mm
G1 X95.6710 Y41.2270 Z0.0400 F676.5 ; Width: 1.064mm
G1 X95.7630 Y41.1139 Z0.0400 F661.9 ; Width: 1.088mm
G1 X95.9499 Y40.9270 Z0.0400 F661.0 ; Width: 1.089mm
G1 X96.0830 Y40.8150 Z0.0400 F659.6 ; Width: 1.092mm
G1 X96.2430 Y40.7070 Z0.0400 F654.9 ; Width: 1.099mm
G1 X96.4030 Y40.6216 Z0.0400 F650.2 ; Width: 1.107mm
G1 X96.6230 Y40.5270 Z0.0400 F644.2 ; Width: 1.118mm
G1 X96.8430 Y40.4653 Z0.0400 F647.2 ; Width: 1.112mm
G1 X97.0030 Y40.4369 Z0.0400 F653.1 ; Width: 1.102mm
G1 X97.1030 Y40.4070 Z0.0400 F654.3 ; Width: 1.100mm
G1 X97.2430 Y40.4054 Z0.0400 F655.0 ; Width: 1.099mm
G1 X97.3430 Y40.3870 Z0.0400 F657.7 ; Width: 1.095mm
G1 X97.6830 Y40.3870 Z0.0400 F1800.0 ; Width: 0.400mm
G1 X97.7830 Y40.4054 Z0.0400 F658.8 ; Width: 1.093mm
G1 X97.9230 Y40.4070 Z0.0400 F1800.0 ; Width: 0.400mm
G1 X98.0030 Y40.4324 Z0.0400 F656.2 ; Width: 1.097mm
G1 X98.1430 Y40.4569 Z0.0400 F1800.0 ; Width: 0.400mm
G1 X98.2230 Y40.4870 Z0.0400 F649.0 ; Width: 1.109mm
G1 X98.3230 Y40.5054 Z0.0400 F647.2 ; Width: 1.113mm
G1 X98.3830 Y40.5270 Z0.0400 F649.9 ; Width: 1.108mm
G1 X98.5830 Y40.6141 Z0.0400 F645.6 ; Width: 1.115mm
G1 X98.8030 Y40.7364 Z0.0400 F651.5 ; Width: 1.105mm
G1 X99.0230 Y40.9150 Z0.0400 F654.4 ; Width: 1.100mm
G1 X99.2150 Y41.1070 Z0.0400 F656.3 ; Width: 1.097mm
G1 X99.3630 Y41.3070 Z0.0400 F655.4 ; Width: 1.099mm
G1 X99.5159 Y41.5670 Z0.0400 F687.6 ; Width: 1.047mm
G1 X99.6230 Y41.7870 Z0.0400 F708.2 ; Width: 1.017mm
G1 X99.7331 Y42.0870 Z0.0400 F729.0 ; Width: 0.988mm
G1 X99.7630 Y42.2070 Z0.0400 F739.3 ; Width: 0.974mm
G1 X99.8046 Y42.3270 Z0.0400 F747.8 ; Width: 0.963mm
G1 X99.8176 Y42.4070 Z0.0400 F751.1 ; Width: 0.959mm
G1 X99.8430 Y42.4870 Z0.0400 F749.4 ; Width: 0.961mm
G1 X99.8531 Y42.5670 Z0.0400 F745.1 ; Width: 0.966mm
G1 X99.9230 Y42.8870 Z0.0400 F765.0 ; Width: 0.941mm
G1 X99.9266 Y42.9870 Z0.0400 F761.1 ; Width: 0.946mm
G1 X99.9630 Y43.2070 Z0.0400 F766.8 ; Width: 0.939mm
G1 X99.9666 Y43.3470 Z0.0400 F763.1 ; Width: 0.943mm
G1 X99.9830 Y43.4270 Z0.0400 F763.5 ; Width: 0.943mm
G1 X99.9846 Y43.5870 Z0.0400 F762.4 ; Width: 0.944mm
G1 X100.0030 Y43.6870 Z0.0400 F724.9 ; Width: 0.993mm
G1 X100.0030 Y44.9270 Z0.0400 F604.1 ; Width: 1.192mm
G1 X100.0230 Y45.0670 Z0.0400 F600.0 ; Width: 1.200mm
G1 X100.0230 Y45.1270 Z0.0400 F600.0 ; Width: 1.200mm
G1 X100.0030 Y45.1470 Z0.0400 F600.0 ; Width: 1.200mm
G1 X99.0830 Y45.1470 Z0.0400 F600.0 ; Width: 1.200mm
G1 X99.0630 Y45.1270 Z0.0400 F632.8 ; Width: 1.138mm
G1 X99.0626 Y43.7070 Z0.0400 F666.5 ; Width: 1.080mm
G1 X99.0430 Y43.5870 Z0.0400 F753.2 ; Width: 0.956mm
G1 X99.0394 Y43.5070 Z0.0400 F762.5 ; Width: 0.944mm
G1 X99.0230 Y43.4270 Z0.0400 F763.5 ; Width: 0.943mm
G1 X99.0214 Y43.2670 Z0.0400 F762.4 ; Width: 0.944mm
G1 X98.9830 Y43.0870 Z0.0400 F762.9 ; Width: 0.944mm
G1 X98.9814 Y43.0070 Z0.0400 F760.8 ; Width: 0.946mm
G1 X98.9684 Y42.9270 Z0.0400 F756.7 ; Width: 0.951mm
G1 X98.8830 Y42.6070 Z0.0400 F758.9 ; Width: 0.949mm
G1 X98.8095 Y42.4070 Z0.0400 F746.4 ; Width: 0.965mm
G1 X98.6901 Y42.1870 Z0.0400 F716.0 ; Width: 1.006mm
G1 X98.6030 Y42.0670 Z0.0400 F696.3 ; Width: 1.034mm
G1 X98.3430 Y41.8028 Z0.0400 F674.2 ; Width: 1.068mm
G1 X98.1630 Y41.6884 Z0.0400 F666.7 ; Width: 1.080mm
G1 X98.0030 Y41.6087 Z0.0400 F660.6 ; Width: 1.090mm
G1 X97.9230 Y41.5816 Z0.0400 F658.8 ; Width: 1.093mm
G1 X97.7230 Y41.5371 Z0.0400 F660.5 ; Width: 1.090mm
G1 X97.6430 Y41.5274 Z0.0400 F655.9 ; Width: 1.098mm
G1 X97.3430 Y41.5286 Z0.0400 F653.0 ; Width: 1.103mm
G1 X97.1030 Y41.5816 Z0.0400 F662.4 ; Width: 1.087mm
G1 X96.9430 Y41.6380 Z0.0400 F663.1 ; Width: 1.086mm
G1 X96.7230 Y41.7599 Z0.0400 F661.4 ; Width: 1.089mm
G1 X96.6630 Y41.8028 Z0.0400 F663.8 ; Width: 1.085mm
G1 X96.5230 Y41.9204 Z0.0400 F666.5 ; Width: 1.080mm
G1 X96.4164 Y42.0270 Z0.0400 F664.6 ; Width: 1.083mm
G1 X96.2559 Y42.2470 Z0.0400 F692.2 ; Width: 1.040mm
G1 X96.1740 Y42.4070 Z0.0400 F717.1 ; Width: 1.004mm
G1 X96.1165 Y42.5470 Z0.0400 F729.8 ; Width: 0.987mm
G1 X96.0630 Y42.7070 Z0.0400 F736.8 ; Width: 0.977mm
G1 X96.0131 Y42.9070 Z0.0400 F745.8 ; Width: 0.965mm
G1 X95.9666 Y43.1670 Z0.0400 F744.3 ; Width: 0.967mm
G1 X95.9630 Y43.2870 Z0.0400 F755.1 ; Width: 0.954mm
G1 X95.9466 Y43.3670 Z0.0400 F750.5 ; Width: 0.959mm
G1 X95.9430 Y43.4870 Z0.0400 F745.9 ; Width: 0.965mm
G1 X95.9230 Y43.6270 Z0.0400 F754.6 ; Width: 0.954mm
M118 P0 S"32" ; Sync timer
G1 X95.9234 Y51.7270 Z0.0400 F600.0 ; Width: 1.200mm
G1 X95.9430 Y51.8470 Z0.0400 F756.3 ; Width: 0.952mm
G1 X95.9446 Y51.9670 Z0.0400 F743.6 ; Width: 0.968mm
G1 X95.9630 Y52.0670 Z0.0400 F755.1 ; Width: 0.954mm
G1 X95.9694 Y52.2070 Z0.0400 F758.4 ; Width: 0.949mm
G1 X95.9931 Y52.3670 Z0.0400 F761.0 ; Width: 0.946mm
G1 X96.0176 Y52.4870 Z0.0400 F757.3 ; Width: 0.951mm
G1 X96.0430 Y52.5670 Z0.0400 F743.3 ; Width: 0.969mm
G1 X96.0576 Y52.6670 Z0.0400 F749.5 ; Width: 0.961mm
G1 X96.1647 Y52.9470 Z0.0400 F733.3 ; Width: 0.982mm
G1 X96.2244 Y53.0670 Z0.0400 F711.1 ; Width: 1.013mm
G1 X96.3030 Y53.1982 Z0.0400 F703.1 ; Width: 1.024mm
G1 X96.4230 Y53.3539 Z0.0400 F689.6 ; Width: 1.044mm
G1 X96.5230 Y53.4536 Z0.0400 F1800.0 ; Width: 0.400mm
G1 X96.6830 Y53.5870 Z0.0400 F1800.0 ; Width: 0.400mm
G1 X96.7430 Y53.6256 Z0.0400 F1800.0 ; Width: 0.400mm
G1 X96.9030 Y53.7053 Z0.0400 F1800.0 ; Width: 0.400mm
G1 X97.1030 Y53.7769 Z0.0400 F1800.0 ; Width: 0.400mm
G1 X97.2430 Y53.8034 Z0.0400 F1800.0 ; Width: 0.400mm
G1 X97.3430 Y53.8070 Z0.0400 F1800.0 ; Width: 0.400mm
G1 X97.4630 Y53.8266 Z0.0400 F1800.0 ; Width: 0.400mm
G1 X97.5430 Y53.8254 Z0.0400 F1800.0 ; Width: 0.400mm
G1 X97.6430 Y53.8070 Z0.0400 F1800.0 ; Width: 0.400mm
G1 X97.7630 Y53.8006 Z0.0400 F1800.0 ; Width: 0.400mm
G1 X97.9430 Y53.7535 Z0.0400 F657.6 ; Width: 1.095mm
G1 X98.0830 Y53.6960 Z0.0400 F657.4 ; Width: 1.095mm
G1 X98.2542 Y53.6070 Z0.0400 F1800.0 ; Width: 0.400mm
G1 X98.4499 Y53.4470 Z0.0400 F665.7 ; Width: 1.082mm
G1 X98.5430 Y53.3519 Z0.0400 F673.9 ; Width: 1.068mm
G1 X98.6430 Y53.2270 Z0.0400 F680.4 ; Width: 1.058mm
G1 X98.7720 Y53.0070 Z0.0400 F705.1 ; Width: 1.021mm
G1 X98.8213 Y52.9070 Z0.0400 F726.1 ; Width: 0.992mm
G1 X98.8830 Y52.7470 Z0.0400 F739.8 ; Width: 0.973mm
G1 X98.9284 Y52.5870 Z0.0400 F743.6 ; Width: 0.968mm
G1 X98.9729 Y52.3870 Z0.0400 F740.5 ; Width: 0.972mm
G1 X98.9830 Y52.2870 Z0.0400 F758.6 ; Width: 0.949mm
G1 X99.0214 Y52.0870 Z0.0400 F764.5 ; Width: 0.942mm
G1 X99.0230 Y51.9470 Z0.0400 F762.3 ; Width: 0.944mm
G1 X99.0394 Y51.8670 Z0.0400 F765.3 ; Width: 0.941mm
G1 X99.0430 Y51.7270 Z0.0400 F758.7 ; Width: 0.949mm
G1 X99.0626 Y51.6070 Z0.0400 F738.4 ; Width: 0.975mm
G1 X99.0630 Y50.7870 Z0.0400 F663.4 ; Width: 1.085mm
G1 X99.0830 Y50.7670 Z0.0400 F657.2 ; Width: 1.096mm
G1 X100.0030 Y50.7670 Z0.0400 F631.5 ; Width: 1.140mm
G1 X100.0230 Y50.7870 Z0.0400 F600.0 ; Width: 1.200mm
G1 X100.0230 Y51.0470 Z0.0400 F600.0 ; Width: 1.200mm
G1 X100.0034 Y51.1670 Z0.0400 F616.7 ; Width: 1.168mm
G1 X100.0030 Y51.7470 Z0.0400 F657.0 ; Width: 1.096mm
G1 X99.9866 Y51.8270 Z0.0400 F751.0 ; Width: 0.959mm
G1 X99.9830 Y51.9270 Z0.0400 F761.5 ; Width: 0.945mm
G1 X99.9666 Y52.0070 Z0.0400 F765.3 ; Width: 0.941mm
G1 X99.9630 Y52.1270 Z0.0400 F763.0 ; Width: 0.944mm
G1 X99.9266 Y52.3670 Z0.0400 F768.3 ; Width: 0.937mm
G1 X99.9230 Y52.4870 Z0.0400 F756.2 ; Width: 0.952mm
G1 X99.8046 Y53.0270 Z0.0400 F757.3 ; Width: 0.951mm
G1 X99.7165 Y53.3270 Z0.0400 F736.8 ; Width: 0.977mm
G1 X99.6140 Y53.5870 Z0.0400 F719.8 ; Width: 1.000mm
G1 X99.4536 Y53.9070 Z0.0400 F698.0 ; Width: 1.031mm
G1 X99.3888 Y53.9870 Z0.0400 F679.1 ; Width: 1.060mm
G1 X99.2550 Y54.1870 Z0.0400 F672.3 ; Width: 1.071mm
G1 X99.1430 Y54.3201 Z0.0400 F663.7 ; Width: 1.085mm
G1 X99.0430 Y54.4190 Z0.0400 F665.2 ; Width: 1.082mm
G1 X98.8630 Y54.5594 Z0.0400 F662.8 ; Width: 1.086mm
G1 X98.7630 Y54.6270 Z0.0400 F651.1 ; Width: 1.106mm
G1 X98.4830 Y54.7670 Z0.0400 F711.8 ; Width: 1.011mm
G1 X98.3230 Y54.8283 Z0.0400 F929.5 ; Width: 0.775mm
G1 X98.1830 Y54.8687 Z0.0400 F1165.1 ; Width: 0.618mm
G1 X97.9030 Y54.9270 Z0.0400 F1786.4 ; Width: 0.403mm
G1 X97.7830 Y54.9286 Z0.0400 F3582.8 ; Width: 0.201mm
G1 X97.6430 Y54.9474 Z0.0400 F3600.0 ; Width: 0.200mm
G0 Z1.0400 F6000.0 ; Z-hop up
G0 X82.1230 Y54.7470 F6000.0 ; Travel to new path
G0 Z0.0400 F6000.0 ; Z-hop down
G1 X81.1830 Y54.7470 Z0.0400 F1531.9 ; Width: 0.470mm
G1 X81.1630 Y54.7270 Z0.0400 F757.9 ; Width: 0.950mm
M118 P0 S"33" ; Sync timer
G1 X81.1630 Y49.4270 Z0.0400 F600.0 ; Width: 1.200mm
G1 X81.1814 Y49.3270 Z0.0400 F652.9 ; Width: 1.103mm
G1 X81.1814 Y49.1870 Z0.0400 F627.9 ; Width: 1.147mm
G1 X81.1367 Y48.9470 Z0.0400 F600.0 ; Width: 1.200mm
G1 X81.0901 Y48.8470 Z0.0400 F600.0 ; Width: 1.200mm
G1 X81.0296 Y48.7670 Z0.0400 F600.0 ; Width: 1.200mm
G1 X80.9430 Y48.6828 Z0.0400 F600.0 ; Width: 1.200mm
G1 X80.8430 Y48.6180 Z0.0400 F600.0 ; Width: 1.200mm
G1 X80.7430 Y48.5816 Z0.0400 F600.0 ; Width: 1.200mm
G1 X80.6230 Y48.5670 Z0.0400 F614.9 ; Width: 1.171mm
G1 X78.3430 Y48.5706 Z0.0400 F606.1 ; Width: 1.188mm
G1 X78.2230 Y48.6005 Z0.0400 F607.8 ; Width: 1.185mm
G1 X78.1230 Y48.6528 Z0.0400 F600.0 ; Width: 1.200mm
G1 X78.0630 Y48.7004 Z0.0400 F600.0 ; Width: 1.200mm
G1 X77.9830 Y48.7801 Z0.0400 F600.0 ; Width: 1.200mm
G1 X77.9159 Y48.8670 Z0.0400 F600.0 ; Width: 1.200mm
G1 X77.8630 Y48.9870 Z0.0400 F600.0 ; Width: 1.200mm
G1 X77.8430 Y49.1270 Z0.0400 F600.0 ; Width: 1.200mm
G1 X77.8430 Y54.7270 Z0.0400 F600.0 ; Width: 1.200mm
G1 X77.8230 Y54.7470 Z0.0400 F600.0 ; Width: 1.200mm
G1 X76.8830 Y54.7470 Z0.0400 F600.0 ; Width: 1.200mm
G1 X76.8630 Y54.7270 Z0.0400 F600.0 ; Width: 1.200mm
M118 P0 S"34" ; Sync timer
G1 X76.8630 Y40.6270 Z0.0400 F600.0 ; Width: 1.200mm
G1 X76.8830 Y40.6070 Z0.0400 F600.0 ; Width: 1.200mm
G1 X77.8230 Y40.6070 Z0.0400 F600.0 ; Width: 1.200mm
G1 X77.8430 Y40.6270 Z0.0400 F600.0 ; Width: 1.200mm
G1 X77.8446 Y46.8870 Z0.0400 F600.0 ; Width: 1.200mm
G1 X77.8630 Y46.9870 Z0.0400 F600.0 ; Width: 1.200mm
G1 X77.9044 Y47.0870 Z0.0400 F600.0 ; Width: 1.200mm
G1 X77.9630 Y47.1719 Z0.0400 F600.0 ; Width: 1.200mm
G1 X78.0630 Y47.2736 Z0.0400 F600.0 ; Width: 1.200mm
G1 X78.1430 Y47.3341 Z0.0400 F600.0 ; Width: 1.200mm
G1 X78.2230 Y47.3735 Z0.0400 F600.0 ; Width: 1.200mm
G1 X78.3030 Y47.3969 Z0.0400 F606.0 ; Width: 1.188mm
G1 X78.4030 Y47.4070 Z0.0400 F616.1 ; Width: 1.169mm
G1 X80.6830 Y47.4034 Z0.0400 F600.0 ; Width: 1.200mm
G1 X80.8030 Y47.3735 Z0.0400 F607.8 ; Width: 1.185mm
G1 X80.9030 Y47.3212 Z0.0400 F600.0 ; Width: 1.200mm
G1 X81.0296 Y47.2070 Z0.0400 F600.0 ; Width: 1.200mm
G1 X81.1016 Y47.1070 Z0.0400 F600.0 ; Width: 1.200mm
G1 X81.1484 Y46.9870 Z0.0400 F600.0 ; Width: 1.200mm
G1 X81.1630 Y46.8670 Z0.0400 F600.0 ; Width: 1.200mm
M118 P0 S"35" ; Sync timer
G1 X81.1630 Y40.6270 Z0.0400 F600.0 ; Width: 1.200mm
G1 X81.1830 Y40.6070 Z0.0400 F603.0 ; Width: 1.194mm
G1 X82.1230 Y40.6070 Z0.0400 F600.0 ; Width: 1.200mm
G1 X82.1430 Y40.6270 Z0.0400 F600.0 ; Width: 1.200mm
G1 X82.1430 Y54.7270 Z0.0400 F600.0 ; Width: 1.200mm
G1 X82.1230 Y54.7470 Z0.0400 F3600.0 ; Width: 0.200mm